{"type":"FeatureCollection","features":[{"type":"Feature","id":"node/29898129","properties":{"type":"node","id":29898129,"tags":{"amenity":"bicycle_rental"},"relations":[],"meta":{}},"geometry":{"type":"Point","coordinates":[18.0823169,59.3311921]}},{"type":"Feature","id":"node/165451565","properties":{"type":"node","id":165451565,"tags":{"amenity":"bicycle_rental","capacity":"15","name":"Mariatorget 5","network":"Stockholm City Bikes","operator":"City Bikes","payment:cash":"no","payment:debit_cards":"no","payment:electronic_purses":"City Bikes Stockholm","ref":"21","self_service":"yes","website":"http://www.citybikes.se"},"relations":[],"meta":{}},"geometry":{"type":"Point","coordinates":[18.063451,59.3178398]}},{"type":"Feature","id":"node/269270619","properties":{"type":"node","id":269270619,"tags":{"amenity":"bicycle_rental","fixme":"bad tagging yes, but these are really bicycles on rails :-)","name":"Gullspång dressinuthyrning","tourism":"attraction"},"relations":[],"meta":{}},"geometry":{"type":"Point","coordinates":[14.0938148,58.9844145]}},{"type":"Feature","id":"node/282118848","properties":{"type":"node","id":282118848,"tags":{"amenity":"bicycle_rental","name":"Byggar'n","shop":"bicycle"},"relations":[],"meta":{}},"geometry":{"type":"Point","coordinates":[16.7767168,60.618382]}},{"type":"Feature","id":"node/339299834","properties":{"type":"node","id":339299834,"tags":{"amenity":"bicycle_rental"},"relations":[],"meta":{}},"geometry":{"type":"Point","coordinates":[17.467047,67.7228471]}},{"type":"Feature","id":"node/346737206","properties":{"type":"node","id":346737206,"tags":{"amenity":"bicycle_rental","created_by":"Potlatch 0.10f"},"relations":[],"meta":{}},"geometry":{"type":"Point","coordinates":[13.07613,63.3988062]}},{"type":"Feature","id":"node/355660348","properties":{"type":"node","id":355660348,"tags":{"amenity":"bicycle_rental","name":"Servicedepan - Cykelstallet"},"relations":[],"meta":{}},"geometry":{"type":"Point","coordinates":[18.0448878,59.3324008]}},{"type":"Feature","id":"node/372840781","properties":{"type":"node","id":372840781,"tags":{"amenity":"bicycle_rental","capacity":"9","name":"Stockholm City Bikes","network":"Stockholm City Bikes","operator":"City Bikes","payment:cash":"no","payment:debit_cards":"no","payment:electronic_purses":"City Bikes Stockholm","ref":"61","self_service":"yes","website":"http://www.citybikes.se"},"relations":[],"meta":{}},"geometry":{"type":"Point","coordinates":[18.0725257,59.3441927]}},{"type":"Feature","id":"node/373447807","properties":{"type":"node","id":373447807,"tags":{"amenity":"bicycle_rental","capacity":"18","name":"Stockholm City Bikes, Erikdahlbergsgatan 26","network":"Stockholm City Bikes","operator":"City Bikes","payment:cash":"no","payment:debit_cards":"no","payment:electronic_purses":"City Bikes Stockholm","ref":"66","self_service":"yes","website":"http://www.citybikes.se"},"relations":[],"meta":{}},"geometry":{"type":"Point","coordinates":[18.0919311,59.3428544]}},{"type":"Feature","id":"node/373461566","properties":{"type":"node","id":373461566,"tags":{"amenity":"bicycle_rental","capacity":"12","name":"Stockholm City Bikes Värtavägen 2, Karlplan","network":"Stockholm City Bikes","operator":"City Bikes","payment:cash":"no","payment:debit_cards":"no","payment:electronic_purses":"City Bikes Stockholm","ref":"51","self_service":"yes","website":"http://www.citybikes.se"},"relations":[],"meta":{}},"geometry":{"type":"Point","coordinates":[18.0911552,59.3386556]}},{"type":"Feature","id":"node/373769257","properties":{"type":"node","id":373769257,"tags":{"amenity":"bicycle_rental"},"relations":[],"meta":{}},"geometry":{"type":"Point","coordinates":[18.0935803,59.3308324]}},{"type":"Feature","id":"node/373793177","properties":{"type":"node","id":373793177,"tags":{"amenity":"bicycle_rental","capacity":"24","name":"Allmänna gränd","network":"Stockholm City Bikes","operator":"City Bikes","payment:cash":"no","payment:debit_cards":"no","payment:electronic_purses":"City Bikes Stockholm","ref":"1","self_service":"yes","website":"http://www.citybikes.se"},"relations":[],"meta":{}},"geometry":{"type":"Point","coordinates":[18.0955405,59.3242263]}},{"type":"Feature","id":"node/410518570","properties":{"type":"node","id":410518570,"tags":{"amenity":"bicycle_rental","capacity":"9","name":"Sturegatan 19","network":"Stockholm City Bikes","operator":"City Bikes","payment:cash":"no","payment:debit_cards":"no","payment:electronic_purses":"City Bikes Stockholm","ref":"46","self_service":"yes","website":"http://www.citybikes.se"},"relations":[],"meta":{}},"geometry":{"type":"Point","coordinates":[18.0770553,59.3419639]}},{"type":"Feature","id":"node/410622640","properties":{"type":"node","id":410622640,"tags":{"amenity":"bicycle_rental","capacity":"9","name":"Stadshusbron","network":"Stockholm City Bikes","operator":"City Bikes","payment:cash":"no","payment:debit_cards":"no","payment:electronic_purses":"City Bikes Stockholm","ref":"42","self_service":"yes","website":"http://www.citybikes.se"},"relations":[],"meta":{}},"geometry":{"type":"Point","coordinates":[18.0550544,59.3281071]}},{"type":"Feature","id":"node/413491408","properties":{"type":"node","id":413491408,"tags":{"amenity":"bicycle_rental","capacity":"18","name":"Karlavägen 1","network":"Stockholm City Bikes","operator":"City Bikes","payment:cash":"no","payment:debit_cards":"no","payment:electronic_purses":"City Bikes Stockholm","ref":"94","self_service":"yes","website":"http://www.citybikes.se"},"relations":[],"meta":{}},"geometry":{"type":"Point","coordinates":[18.0638696,59.3449492]}},{"type":"Feature","id":"node/413498155","properties":{"type":"node","id":413498155,"tags":{"amenity":"bicycle_rental","name":"Odenplan","network":"Stockholm City Bikes","operator":"City Bikes","payment:cash":"no","payment:debit_cards":"no","payment:electronic_purses":"City Bikes Stockholm","ref":"14","self_service":"yes","website":"http://www.citybikes.se"},"relations":[],"meta":{}},"geometry":{"type":"Point","coordinates":[18.050464,59.342878]}},{"type":"Feature","id":"node/439530612","properties":{"type":"node","id":439530612,"tags":{"amenity":"bicycle_rental","name":"Aspö Skärgårdskiosk"},"relations":[],"meta":{}},"geometry":{"type":"Point","coordinates":[15.5497379,56.123995]}},{"type":"Feature","id":"node/442084334","properties":{"type":"node","id":442084334,"tags":{"amenity":"bicycle_rental","name":"Ropsten / Busstorget","network":"Stockholm City Bikes","operator":"City Bikes","payment:cash":"no","payment:debit_cards":"no","payment:electronic_purses":"City Bikes Stockholm","ref":"28","self_service":"yes","website":"http://www.citybikes.se"},"relations":[],"meta":{}},"geometry":{"type":"Point","coordinates":[18.1027905,59.3573924]}},{"type":"Feature","id":"node/442085475","properties":{"type":"node","id":442085475,"tags":{"amenity":"bicycle_rental","capacity":"18","name":"Lindarängsvägen / Tegeluddsvägen 100","network":"Stockholm City Bikes","operator":"City Bikes","payment:cash":"no","payment:debit_cards":"no","payment:electronic_purses":"City Bikes Stockholm","ref":"58","self_service":"yes","source":"survey","website":"http://www.citybikes.se"},"relations":[],"meta":{}},"geometry":{"type":"Point","coordinates":[18.1128619,59.33959]}},{"type":"Feature","id":"node/444686312","properties":{"type":"node","id":444686312,"tags":{"amenity":"bicycle_rental","capacity":"15","name":"Tegeluddsvägen 100","network":"Stockholm City Bikes","operator":"City Bikes","payment:cash":"no","payment:debit_cards":"no","payment:electronic_purses":"City Bikes Stockholm","ref":"59","self_service":"yes","source":"survey","website":"http://www.citybikes.se"},"relations":[],"meta":{}},"geometry":{"type":"Point","coordinates":[18.1148751,59.3399636]}},{"type":"Feature","id":"node/448918528","properties":{"type":"node","id":448918528,"tags":{"amenity":"bicycle_rental","capacity":"12","name":"Valhallavägen 77","network":"Stockholm City Bikes","operator":"City Bikes","payment:cash":"no","payment:debit_cards":"no","payment:electronic_purses":"City Bikes Stockholm","ref":"7","self_service":"yes","website":"http://www.citybikes.se"},"relations":[],"meta":{}},"geometry":{"type":"Point","coordinates":[18.0714916,59.3456862]}},{"type":"Feature","id":"node/472381063","properties":{"type":"node","id":472381063,"tags":{"amenity":"bicycle_rental"},"relations":[],"meta":{}},"geometry":{"type":"Point","coordinates":[13.2877719,56.0028379]}},{"type":"Feature","id":"node/473546088","properties":{"type":"node","id":473546088,"tags":{"amenity":"bicycle_rental","capacity":"12","name":"Sveavägen 29","network":"Stockholm City Bikes","operator":"City Bikes","payment:cash":"no","payment:debit_cards":"no","payment:electronic_purses":"City Bikes Stockholm","ref":"54","self_service":"yes","website":"http://www.citybikes.se"},"relations":[],"meta":{}},"geometry":{"type":"Point","coordinates":[18.0626116,59.3362352]}},{"type":"Feature","id":"node/486191074","properties":{"type":"node","id":486191074,"tags":{"amenity":"bicycle_rental","capacity":"9","network":"Stockholm City Bikes","operator":"City Bikes","payment:cash":"no","payment:debit_cards":"no","payment:electronic_purses":"City Bikes Stockholm","ref":"29","self_service":"yes","website":"http://www.citybikes.se"},"relations":[],"meta":{}},"geometry":{"type":"Point","coordinates":[18.0728861,59.3331179]}},{"type":"Feature","id":"node/489925767","properties":{"type":"node","id":489925767,"tags":{"amenity":"bicycle_rental","capacity":"24","name":"Hamngatan 16","network":"Stockholm City Bikes","operator":"City Bikes","payment:cash":"no","payment:debit_cards":"no","payment:electronic_purses":"City Bikes Stockholm","ref":"32","self_service":"yes","website":"http://www.citybikes.se"},"relations":[],"meta":{}},"geometry":{"type":"Point","coordinates":[18.0665377,59.3324639]}},{"type":"Feature","id":"node/510967969","properties":{"type":"node","id":510967969,"tags":{"amenity":"bicycle_rental","name":"Brännö Cykeluthyrning","phone":"076-1091936","website":"http://www.1-2-3-bike.com/website/braennoe_cykeluthyrning_goeteborg.htm"},"relations":[],"meta":{}},"geometry":{"type":"Point","coordinates":[11.7841528,57.6479932]}},{"type":"Feature","id":"node/741137387","properties":{"type":"node","id":741137387,"tags":{"amenity":"bicycle_rental","capacity":"16","name":"Ringvägen 111","network":"Stockholm City Bikes","operator":"City Bikes","payment:cash":"no","payment:debit_cards":"no","payment:electronic_purses":"City Bikes Stockholm","ref":"26","self_service":"yes","website":"http://www.citybikes.se"},"relations":[],"meta":{}},"geometry":{"type":"Point","coordinates":[18.0739141,59.3076661]}},{"type":"Feature","id":"node/741137389","properties":{"type":"node","id":741137389,"tags":{"amenity":"bicycle_rental","capacity":"12","name":"Hornsgatan 140","network":"Stockholm City Bikes","operator":"City Bikes","payment:cash":"no","payment:debit_cards":"no","payment:electronic_purses":"City Bikes Stockholm","ref":"11","self_service":"yes","website":"http://www.citybikes.se"},"relations":[],"meta":{}},"geometry":{"type":"Point","coordinates":[18.0412964,59.3163012]}},{"type":"Feature","id":"node/741176029","properties":{"type":"node","id":741176029,"tags":{"amenity":"bicycle_rental","capacity":"9","name":"Ringvägen 54","network":"Stockholm City Bikes","operator":"City Bikes","payment:cash":"no","payment:debit_cards":"no","payment:electronic_purses":"City Bikes Stockholm","ref":"23","self_service":"yes","website":"http://www.citybikes.se"},"relations":[],"meta":{}},"geometry":{"type":"Point","coordinates":[18.062192,59.3091843]}},{"type":"Feature","id":"node/741176030","properties":{"type":"node","id":741176030,"tags":{"amenity":"bicycle_rental","name":"Medborgarplatsen","network":"Stockholm City Bikes","operator":"City Bikes","payment:cash":"no","payment:debit_cards":"no","payment:electronic_purses":"City Bikes Stockholm","ref":"126","self_service":"yes","website":"http://www.citybikes.se"},"relations":[],"meta":{}},"geometry":{"type":"Point","coordinates":[18.0727974,59.3149982]}},{"type":"Feature","id":"node/741176034","properties":{"type":"node","id":741176034,"tags":{"amenity":"bicycle_rental","capacity":"12","name":"Folkungagatan 134","network":"Stockholm City Bikes","operator":"City Bikes","payment:cash":"no","payment:debit_cards":"no","payment:electronic_purses":"City Bikes Stockholm","ref":"20","self_service":"yes","website":"http://www.citybikes.se"},"relations":[],"meta":{}},"geometry":{"type":"Point","coordinates":[18.0885169,59.315714]}},{"type":"Feature","id":"node/741176035","properties":{"type":"node","id":741176035,"tags":{"amenity":"bicycle_rental","network":"Stockholm City Bikes","operator":"City Bikes","payment:cash":"no","payment:debit_cards":"no","payment:electronic_purses":"City Bikes Stockholm","ref":"126","self_service":"yes","source":"http://cykla.stockholm.se/","website":"http://www.citybikes.se"},"relations":[],"meta":{}},"geometry":{"type":"Point","coordinates":[18.0741718,59.3121504]}},{"type":"Feature","id":"node/741176037","properties":{"type":"node","id":741176037,"tags":{"amenity":"bicycle_rental","network":"Stockholm City Bikes","operator":"City Bikes","payment:cash":"no","payment:debit_cards":"no","payment:electronic_purses":"City Bikes Stockholm","ref":"126","self_service":"yes","source":"http://cykla.stockholm.se/","website":"http://www.citybikes.se"},"relations":[],"meta":{}},"geometry":{"type":"Point","coordinates":[18.0653227,59.3142729]}},{"type":"Feature","id":"node/741176040","properties":{"type":"node","id":741176040,"tags":{"amenity":"bicycle_rental","capacity":"12","name":"Ringvägen 108","network":"Stockholm City Bikes","operator":"City Bikes","payment:cash":"no","payment:debit_cards":"no","payment:electronic_purses":"City Bikes Stockholm","ref":"25","self_service":"yes","website":"http://www.citybikes.se"},"relations":[],"meta":{}},"geometry":{"type":"Point","coordinates":[18.0779939,59.3078405]}},{"type":"Feature","id":"node/741176041","properties":{"type":"node","id":741176041,"tags":{"amenity":"bicycle_rental","capacity":"18","name":"Ringvägen 45","network":"Stockholm City Bikes","operator":"City Bikes","payment:cash":"no","payment:debit_cards":"no","payment:electronic_purses":"City Bikes Stockholm","ref":"24","self_service":"yes","website":"http://www.citybikes.se"},"relations":[],"meta":{}},"geometry":{"type":"Point","coordinates":[18.0545433,59.3123039]}},{"type":"Feature","id":"node/772319612","properties":{"type":"node","id":772319612,"tags":{"amenity":"bicycle_rental"},"relations":[],"meta":{}},"geometry":{"type":"Point","coordinates":[17.965804,59.364037]}},{"type":"Feature","id":"node/803860197","properties":{"type":"node","id":803860197,"tags":{"amenity":"bicycle_rental","capacity":"20","name":"Brunnsgatan","network":"Styr & Ställ Göteborg","operator":"JCDecaux","ref":"32","source":"http://data.goteborg.se/StyrOchStall/v0.1/GetBikeStation/32/<user_key>"},"relations":[],"meta":{}},"geometry":{"type":"Point","coordinates":[11.9585793,57.6935474]}},{"type":"Feature","id":"node/803860205","properties":{"type":"node","id":803860205,"tags":{"amenity":"bicycle_rental","capacity":"20","name":"Dämmeplatsen","network":"Styr & Ställ Göteborg","operator":"JCDecaux","ref":"22","source":"http://data.goteborg.se/StyrOchStall/v0.1/GetBikeStation/22/<user_key>"},"relations":[],"meta":{}},"geometry":{"type":"Point","coordinates":[11.9899285,57.7075997]}},{"type":"Feature","id":"node/803860217","properties":{"type":"node","id":803860217,"tags":{"amenity":"bicycle_rental","capacity":"20","name":"Gårdatorget","network":"Styr & Ställ Göteborg","operator":"JCDecaux","ref":"24","source":"http://data.goteborg.se/StyrOchStall/v0.1/GetBikeStation/24/<user_key>"},"relations":[],"meta":{}},"geometry":{"type":"Point","coordinates":[11.9924179,57.7046617]}},{"type":"Feature","id":"node/803860220","properties":{"type":"node","id":803860220,"tags":{"amenity":"bicycle_rental","capacity":"20","name":"Åvägen","network":"Styr & Ställ Göteborg","operator":"JCDecaux","ref":"31","source":"http://data.goteborg.se/StyrOchStall/v0.1/GetBikeStation/31/<user_key>"},"relations":[],"meta":{}},"geometry":{"type":"Point","coordinates":[11.9922262,57.701195]}},{"type":"Feature","id":"node/803860222","properties":{"type":"node","id":803860222,"tags":{"amenity":"bicycle_rental","capacity":"20","name":"Kungstorget","network":"Styr & Ställ Göteborg","operator":"JCDecaux","ref":"17","source":"http://data.goteborg.se/StyrOchStall/v0.1/GetBikeStation/17/<user_key>"},"relations":[],"meta":{}},"geometry":{"type":"Point","coordinates":[11.9688735,57.70255]}},{"type":"Feature","id":"node/803860223","properties":{"type":"node","id":803860223,"tags":{"amenity":"bicycle_rental","capacity":"20","name":"Berzeliigatan","network":"Styr & Ställ Göteborg","operator":"JCDecaux","ref":"47","source":"http://data.goteborg.se/StyrOchStall/v0.1/GetBikeStation/47/<user_key>"},"relations":[],"meta":{}},"geometry":{"type":"Point","coordinates":[11.9809665,57.69791]}},{"type":"Feature","id":"node/803860227","properties":{"type":"node","id":803860227,"tags":{"amenity":"bicycle_rental","capacity":"20","name":"Bohusgatan","network":"Styr & Ställ Göteborg","operator":"JCDecaux","ref":"16","source":"http://data.goteborg.se/StyrOchStall/v0.1/GetBikeStation/16/<user_key>"},"relations":[],"meta":{}},"geometry":{"type":"Point","coordinates":[11.9842976,57.7045184]}},{"type":"Feature","id":"node/803860232","properties":{"type":"node","id":803860232,"tags":{"amenity":"bicycle_rental","capacity":"25","name":"Skånegatan","network":"Styr & Ställ Göteborg","operator":"JCDecaux","ref":"23","source":"http://data.goteborg.se/StyrOchStall/v0.1/GetBikeStation/23/<user_key>"},"relations":[],"meta":{}},"geometry":{"type":"Point","coordinates":[11.9846396,57.7061334]}},{"type":"Feature","id":"node/803860241","properties":{"type":"node","id":803860241,"tags":{"amenity":"bicycle_rental","capacity":"30","name":"Scandinavium","network":"Styr & Ställ Göteborg","operator":"JCDecaux","ref":"25","source":"http://data.goteborg.se/StyrOchStall/v0.1/GetBikeStation/25/<user_key>"},"relations":[],"meta":{}},"geometry":{"type":"Point","coordinates":[11.9878395,57.7001888]}},{"type":"Feature","id":"node/803860245","properties":{"type":"node","id":803860245,"tags":{"amenity":"bicycle_rental","capacity":"20","name":"Bergakungen","network":"Styr & Ställ Göteborg","operator":"JCDecaux","ref":"30","source":"http://data.goteborg.se/StyrOchStall/v0.1/GetBikeStation/30/<user_key>"},"relations":[],"meta":{}},"geometry":{"type":"Point","coordinates":[11.984995,57.7021315]}},{"type":"Feature","id":"node/803860251","properties":{"type":"node","id":803860251,"tags":{"amenity":"bicycle_rental","capacity":"30","name":"Heden/Sten Sturegatan","network":"Styr & Ställ Göteborg","operator":"JCDecaux","ref":"15","source":"http://data.goteborg.se/StyrOchStall/v0.1/GetBikeStation/15/<user_key>"},"relations":[],"meta":{}},"geometry":{"type":"Point","coordinates":[11.9801832,57.7029635]}},{"type":"Feature","id":"node/803860255","properties":{"type":"node","id":803860255,"tags":{"amenity":"bicycle_rental","capacity":"30","name":"Skanstorget","network":"Styr & Ställ Göteborg","operator":"JCDecaux","ref":"35","source":"http://data.goteborg.se/StyrOchStall/v0.1/GetBikeStation/35/<user_key>"},"relations":[],"meta":{}},"geometry":{"type":"Point","coordinates":[11.9586166,57.695898]}},{"type":"Feature","id":"node/803860258","properties":{"type":"node","id":803860258,"tags":{"amenity":"bicycle_rental","name":"Östra Hamngatan 33","network":"Styr och ställ Göteborg","operator":"JCDecaux","ref":"32","source":"http://www2.trafikkontoret.goteborg.se/resourcelibrary/Lanecykelstationer%20byggda%20till%202010-08-10%20.pdf"},"relations":[],"meta":{}},"geometry":{"type":"Point","coordinates":[11.9684175,57.7057114]}},{"type":"Feature","id":"node/803860273","properties":{"type":"node","id":803860273,"tags":{"amenity":"bicycle_rental","capacity":"20","name":"Korsvägen (Södra vägen)","network":"Styr & Ställ Göteborg","operator":"JCDecaux","ref":"28","source":"http://data.goteborg.se/StyrOchStall/v0.1/GetBikeStation/28/<user_key>"},"relations":[],"meta":{}},"geometry":{"type":"Point","coordinates":[11.9857071,57.6968951]}},{"type":"Feature","id":"node/803860283","properties":{"type":"node","id":803860283,"tags":{"amenity":"bicycle_rental","capacity":"25","name":"Korsvägen (Universeum)","network":"Styr & Ställ Göteborg","operator":"JCDecaux","ref":"29","source":"http://data.goteborg.se/StyrOchStall/v0.1/GetBikeStation/29/<user_key>"},"relations":[],"meta":{}},"geometry":{"type":"Point","coordinates":[11.9878543,57.6965482]}},{"type":"Feature","id":"node/803860297","properties":{"type":"node","id":803860297,"tags":{"amenity":"bicycle_rental","capacity":"30","name":"Liseberg Station","network":"Styr & Ställ Göteborg","operator":"JCDecaux","ref":"27","source":"http://data.goteborg.se/StyrOchStall/v0.1/GetBikeStation/27/<user_key>"},"relations":[],"meta":{}},"geometry":{"type":"Point","coordinates":[11.9951537,57.6978977]}},{"type":"Feature","id":"node/803860310","properties":{"type":"node","id":803860310,"tags":{"amenity":"bicycle_rental","capacity":"25","name":"Kristinelundsgatan","network":"Styr & Ställ Göteborg","operator":"JCDecaux","ref":"14","source":"http://data.goteborg.se/StyrOchStall/v0.1/GetBikeStation/14/<user_key>"},"relations":[],"meta":{}},"geometry":{"type":"Point","coordinates":[11.9762174,57.6999502]}},{"type":"Feature","id":"node/803860313","properties":{"type":"node","id":803860313,"tags":{"amenity":"bicycle_rental","capacity":"25","name":"Vasagatan/Schillerska","network":"Styr & Ställ Göteborg","operator":"JCDecaux","ref":"38","source":"http://data.goteborg.se/StyrOchStall/v0.1/GetBikeStation/38/<user_key>"},"relations":[],"meta":{}},"geometry":{"type":"Point","coordinates":[11.9676128,57.6982933]}},{"type":"Feature","id":"node/803860318","properties":{"type":"node","id":803860318,"tags":{"amenity":"bicycle_rental","name":"Hagaparken","network":"Styr och ställ Göteborg","operator":"JCDecaux","ref":"20","source":"http://www2.trafikkontoret.goteborg.se/resourcelibrary/Lanecykelstationer%20byggda%20till%202010-08-10%20.pdf"},"relations":[],"meta":{}},"geometry":{"type":"Point","coordinates":[11.9625059,57.6978404]}},{"type":"Feature","id":"node/803860325","properties":{"type":"node","id":803860325,"tags":{"amenity":"bicycle_rental","capacity":"25","name":"Vasagatan/Heden","network":"Styr & Ställ Göteborg","operator":"JCDecaux","ref":"5","source":"http://data.goteborg.se/StyrOchStall/v0.1/GetBikeStation/5/<user_key>"},"relations":[],"meta":{}},"geometry":{"type":"Point","coordinates":[11.9766143,57.7014236]}},{"type":"Feature","id":"node/803860330","properties":{"type":"node","id":803860330,"tags":{"amenity":"bicycle_rental","capacity":"20","name":"Heden syd","network":"Styr & Ställ Göteborg","operator":"JCDecaux","ref":"26","source":"http://data.goteborg.se/StyrOchStall/v0.1/GetBikeStation/26/<user_key>"},"relations":[],"meta":{}},"geometry":{"type":"Point","coordinates":[11.9798653,57.699938]}},{"type":"Feature","id":"node/803860350","properties":{"type":"node","id":803860350,"tags":{"amenity":"bicycle_rental","capacity":"20","name":"Esperantoplatsen","network":"Styr & Ställ Göteborg","operator":"JCDecaux","ref":"8","source":"http://data.goteborg.se/StyrOchStall/v0.1/GetBikeStation/8/%3Cuser_key%3E"},"relations":[],"meta":{}},"geometry":{"type":"Point","coordinates":[11.9554277,57.7024936]}},{"type":"Feature","id":"node/803860361","properties":{"type":"node","id":803860361,"tags":{"amenity":"bicycle_rental","capacity":"40","name":"Storan","network":"Styr & Ställ Göteborg","operator":"JCDecaux","ref":"11","source":"http://data.goteborg.se/StyrOchStall/v0.1/GetBikeStation/11/<user_key>"},"relations":[],"meta":{}},"geometry":{"type":"Point","coordinates":[11.971561,57.7024669]}},{"type":"Feature","id":"node/803860367","properties":{"type":"node","id":803860367,"tags":{"amenity":"bicycle_rental","capacity":"20","name":"Valand","network":"Styr & Ställ Göteborg","operator":"JCDecaux","ref":"10","source":"http://data.goteborg.se/StyrOchStall/v0.1/GetBikeStation/10/<user_key>"},"relations":[],"meta":{}},"geometry":{"type":"Point","coordinates":[11.973503,57.7003121]}},{"type":"Feature","id":"node/803860382","properties":{"type":"node","id":803860382,"tags":{"amenity":"bicycle_rental","name":"Kyrkogatan 18","network":"Styr och ställ Göteborg","operator":"JCDecaux","ref":"9","source":"http://www2.trafikkontoret.goteborg.se/resourcelibrary/Lanecykelstationer%20byggda%20till%202010-08-10%20.pdf"},"relations":[],"meta":{}},"geometry":{"type":"Point","coordinates":[11.9639921,57.7042538]}},{"type":"Feature","id":"node/803860384","properties":{"type":"node","id":803860384,"tags":{"amenity":"bicycle_rental","capacity":"20","name":"Bastionsplatsen","network":"Styr & Ställ Göteborg","operator":"JCDecaux","ref":"21","source":"http://data.goteborg.se/StyrOchStall/v0.1/GetBikeStation/21/<user_key>"},"relations":[],"meta":{}},"geometry":{"type":"Point","coordinates":[11.972139,57.704244]}},{"type":"Feature","id":"node/803860388","properties":{"type":"node","id":803860388,"tags":{"amenity":"bicycle_rental","capacity":"25","name":"Grönsakstorget","network":"Styr & Ställ Göteborg","operator":"JCDecaux","ref":"12","source":"http://data.goteborg.se/StyrOchStall/v0.1/GetBikeStation/12/<user_key>"},"relations":[],"meta":{}},"geometry":{"type":"Point","coordinates":[11.9652861,57.7024447]}},{"type":"Feature","id":"node/803860398","properties":{"type":"node","id":803860398,"tags":{"amenity":"bicycle_rental","capacity":"40","name":"Gustaf Adolfs torg","network":"Styr & Ställ Göteborg","operator":"JCDecaux","ref":"13","source":"http://data.goteborg.se/StyrOchStall/v0.1/GetBikeStation/13/<user_key>"},"relations":[],"meta":{}},"geometry":{"type":"Point","coordinates":[11.9674458,57.7072431]}},{"type":"Feature","id":"node/803860400","properties":{"type":"node","id":803860400,"tags":{"amenity":"bicycle_rental","capacity":"20","name":"Slussplatsen","network":"Styr & Ställ Göteborg","operator":"JCDecaux","ref":"6","source":"http://data.goteborg.se/StyrOchStall/v0.1/GetBikeStation/6/<user_key>"},"relations":[],"meta":{}},"geometry":{"type":"Point","coordinates":[11.9726768,57.707259]}},{"type":"Feature","id":"node/803860402","properties":{"type":"node","id":803860402,"tags":{"amenity":"bicycle_rental","capacity":"20","name":"Lilla Bommen","network":"Styr & Ställ Göteborg","operator":"JCDecaux","ref":"1","source":"http://data.goteborg.se/StyrOchStall/v0.1/GetBikeStation/1/<user_key>"},"relations":[],"meta":{}},"geometry":{"type":"Point","coordinates":[11.9665989,57.7115462]}},{"type":"Feature","id":"node/803860405","properties":{"type":"node","id":803860405,"tags":{"amenity":"bicycle_rental","capacity":"20","name":"Postgatan","network":"Styr & Ställ Göteborg","operator":"JCDecaux","ref":"3","source":"http://data.goteborg.se/StyrOchStall/v0.1/GetBikeStation/3/<user_key>","wikidata":"Q10638085","wikipedia":"sv:Postgatan"},"relations":[],"meta":{}},"geometry":{"type":"Point","coordinates":[11.963911,57.707446]}},{"type":"Feature","id":"node/803860410","properties":{"type":"node","id":803860410,"tags":{"amenity":"bicycle_rental","capacity":"20","name":"Packhusplatsen","network":"Styr & Ställ Göteborg","operator":"JCDecaux","ref":"43","source":"http://data.goteborg.se/StyrOchStall/v0.1/GetBikeStation/43/<user_key>"},"relations":[],"meta":{}},"geometry":{"type":"Point","coordinates":[11.9590298,57.7067833]}},{"type":"Feature","id":"node/803860419","properties":{"type":"node","id":803860419,"tags":{"amenity":"bicycle_rental","capacity":"25","name":"Kanaltorget","network":"Styr & Ställ Göteborg","operator":"JCDecaux","ref":"9","source":"http://data.goteborg.se/StyrOchStall/v0.1/GetBikeStation/9/<user_key>"},"relations":[],"meta":{}},"geometry":{"type":"Point","coordinates":[11.9663468,57.7103484]}},{"type":"Feature","id":"node/803860423","properties":{"type":"node","id":803860423,"tags":{"amenity":"bicycle_rental","capacity":"35","name":"Nils Ericson Terminalen","network":"Styr & Ställ Göteborg","operator":"JCDecaux","ref":"20","source":"http://data.goteborg.se/StyrOchStall/v0.1/GetBikeStation/20/<user_key>"},"relations":[],"meta":{}},"geometry":{"type":"Point","coordinates":[11.9707956,57.7097215]}},{"type":"Feature","id":"node/864113735","properties":{"type":"node","id":864113735,"tags":{"amenity":"bicycle_rental","capacity":"15","name":"Munkbroleden, Gamla stan subway station","network":"Stockholm City Bikes","operator":"City Bikes","payment:cash":"no","payment:debit_cards":"no","payment:electronic_purses":"City Bikes Stockholm","ref":"12","self_service":"yes","website":"http://www.citybikes.se"},"relations":[],"meta":{}},"geometry":{"type":"Point","coordinates":[18.0674403,59.3232287]}},{"type":"Feature","id":"node/864114923","properties":{"type":"node","id":864114923,"tags":{"amenity":"bicycle_rental","capacity":"9","name":"City Bikes","network":"Stockholm City Bikes","operator":"City Bikes","payment:cash":"no","payment:debit_cards":"no","payment:electronic_purses":"City Bikes Stockholm","ref":"65","self_service":"yes","website":"http://www.citybikes.se"},"relations":[],"meta":{}},"geometry":{"type":"Point","coordinates":[18.0621244,59.3288278]}},{"type":"Feature","id":"node/864121621","properties":{"type":"node","id":864121621,"tags":{"amenity":"bicycle_rental","capacity":"12","name":"Bryggargatan 12","network":"Stockholm City Bikes","operator":"City Bikes","payment:cash":"no","payment:debit_cards":"no","payment:electronic_purses":"City Bikes Stockholm","ref":"44","self_service":"yes","website":"http://www.citybikes.se"},"relations":[],"meta":{}},"geometry":{"type":"Point","coordinates":[18.0581349,59.3326427]}},{"type":"Feature","id":"node/864124356","properties":{"type":"node","id":864124356,"tags":{"amenity":"bicycle_rental","capacity":"15","name":"City Bikes","network":"Stockholm City Bikes","operator":"City Bikes","payment:cash":"no","payment:debit_cards":"no","payment:electronic_purses":"City Bikes Stockholm","ref":"71","self_service":"yes","website":"http://www.citybikes.se"},"relations":[],"meta":{}},"geometry":{"type":"Point","coordinates":[18.0517332,59.3271038]}},{"type":"Feature","id":"node/889023194","properties":{"type":"node","id":889023194,"tags":{"amenity":"bicycle_rental","capacity":"9","name":"Rålambsvägen 8","network":"Stockholm City Bikes","operator":"City Bikes","payment:cash":"no","payment:debit_cards":"no","payment:electronic_purses":"City Bikes Stockholm","ref":"50","self_service":"yes","website":"http://www.citybikes.se"},"relations":[],"meta":{}},"geometry":{"type":"Point","coordinates":[18.018363,59.328309]}},{"type":"Feature","id":"node/926266063","properties":{"type":"node","id":926266063,"tags":{"amenity":"bicycle_rental","capacity":"10","name":"Pålsundsbacken/Söder Mälarstrand 11","network":"Stockholm City Bikes","operator":"City Bikes","payment:cash":"no","payment:debit_cards":"no","payment:electronic_purses":"City Bikes Stockholm","ref":"83","self_service":"yes","website":"http://www.citybikes.se"},"relations":[],"meta":{}},"geometry":{"type":"Point","coordinates":[18.033656,59.3196002]}},{"type":"Feature","id":"node/926313220","properties":{"type":"node","id":926313220,"tags":{"amenity":"bicycle_rental","capacity":"12","name":"Söder Mälarstrand/Münchenbryggeriet","network":"Stockholm City Bikes","operator":"City Bikes","payment:cash":"no","payment:debit_cards":"no","payment:electronic_purses":"City Bikes Stockholm","ref":"69","self_service":"yes","website":"http://www.citybikes.se"},"relations":[],"meta":{}},"geometry":{"type":"Point","coordinates":[18.0550064,59.3212589]}},{"type":"Feature","id":"node/1291676730","properties":{"type":"node","id":1291676730,"tags":{"amenity":"bicycle_rental","capacity":"20","name":"Kastellgatan","network":"Styr & Ställ Göteborg","operator":"JCDecaux","ref":"34","source":"http://data.goteborg.se/StyrOchStall/v0.1/GetBikeStation/34/<user_key>"},"relations":[],"meta":{}},"geometry":{"type":"Point","coordinates":[11.9557697,57.6929489]}},{"type":"Feature","id":"node/1293911842","properties":{"type":"node","id":1293911842,"tags":{"amenity":"bicycle_rental","capacity":"20","name":"Drottningtorget","network":"Styr & Ställ Göteborg","operator":"JCDecaux","ref":"42","source":"http://data.goteborg.se/StyrOchStall/v0.1/GetBikeStation/42/<user_key>"},"relations":[],"meta":{}},"geometry":{"type":"Point","coordinates":[11.9726832,57.7080652]}},{"type":"Feature","id":"node/1293944372","properties":{"type":"node","id":1293944372,"tags":{"amenity":"bicycle_rental","capacity":"20","name":"Rosenlundsplatsen","network":"Styr & Ställ Göteborg","operator":"JCDecaux","ref":"18","source":"http://data.goteborg.se/StyrOchStall/v0.1/GetBikeStation/18/<user_key>"},"relations":[],"meta":{}},"geometry":{"type":"Point","coordinates":[11.9605705,57.7006869]}},{"type":"Feature","id":"node/1311126242","properties":{"type":"node","id":1311126242,"tags":{"amenity":"bicycle_rental","capacity":"20","name":"Alströmer-/Friggagatan","network":"Styr & Ställ Göteborg","operator":"JCDecaux","ref":"45","source":"http://data.goteborg.se/StyrOchStall/v0.1/GetBikeStation/45/<user_key>"},"relations":[],"meta":{}},"geometry":{"type":"Point","coordinates":[11.9881813,57.7111686]}},{"type":"Feature","id":"node/1311212350","properties":{"type":"node","id":1311212350,"tags":{"amenity":"bicycle_rental","capacity":"20","name":"Kapellplatsen","network":"Styr & Ställ Göteborg","operator":"JCDecaux","ref":"46","source":"http://data.goteborg.se/StyrOchStall/v0.1/GetBikeStation/46/<user_key>"},"relations":[],"meta":{}},"geometry":{"type":"Point","coordinates":[11.9719249,57.693574]}},{"type":"Feature","id":"node/1311212386","properties":{"type":"node","id":1311212386,"tags":{"amenity":"bicycle_rental","capacity":"20","name":"Molinsgatan","network":"Styr & Ställ Göteborg","operator":"JCDecaux","ref":"37","source":"http://data.goteborg.se/StyrOchStall/v0.1/GetBikeStation/37/<user_key>"},"relations":[],"meta":{}},"geometry":{"type":"Point","coordinates":[11.9721965,57.6967535]}},{"type":"Feature","id":"node/1311212391","properties":{"type":"node","id":1311212391,"tags":{"amenity":"bicycle_rental","capacity":"25","name":"Slottsskogen/Plikta","network":"Styr & Ställ Göteborg","operator":"JCDecaux","ref":"41","source":"http://data.goteborg.se/StyrOchStall/v0.1/GetBikeStation/41/<user_key>"},"relations":[],"meta":{}},"geometry":{"type":"Point","coordinates":[11.9470365,57.6899491]}},{"type":"Feature","id":"node/1311212413","properties":{"type":"node","id":1311212413,"tags":{"amenity":"bicycle_rental","capacity":"20","name":"Frigångsgatan","network":"Styr & Ställ Göteborg","operator":"JCDecaux","ref":"39","source":"http://data.goteborg.se/StyrOchStall/v0.1/GetBikeStation/39/<user_key>"},"relations":[],"meta":{}},"geometry":{"type":"Point","coordinates":[11.9528758,57.6978212]}},{"type":"Feature","id":"node/1375840682","properties":{"type":"node","id":1375840682,"tags":{"FIXME":"bad tagging, you can rent bikes alright but they will only travel on rail","amenity":"bicycle_rental","name":"Delsbo Dressin uthyrning"},"relations":[],"meta":{}},"geometry":{"type":"Point","coordinates":[16.5549233,61.7976428]}},{"type":"Feature","id":"node/1460651604","properties":{"type":"node","id":1460651604,"tags":{"amenity":"bicycle_rental","capacity":"18","name":"Svensksundsvägen 5","network":"Stockholm City Bikes","operator":"City Bikes","payment:cash":"no","payment:debit_cards":"no","payment:electronic_purses":"City Bikes Stockholm","ref":"96","self_service":"yes","website":"http://www.citybikes.se"},"relations":[],"meta":{}},"geometry":{"type":"Point","coordinates":[18.0808747,59.3269166]}},{"type":"Feature","id":"node/1460654535","properties":{"type":"node","id":1460654535,"tags":{"amenity":"bicycle_rental","capacity":"24","name":"Svensksundsvägen 13","network":"Stockholm City Bikes","operator":"City Bikes","payment:cash":"no","payment:debit_cards":"no","payment:electronic_purses":"City Bikes Stockholm","ref":"97","self_service":"yes","website":"http://www.citybikes.se"},"relations":[],"meta":{}},"geometry":{"type":"Point","coordinates":[18.0843554,59.3253741]}},{"type":"Feature","id":"node/1460655188","properties":{"type":"node","id":1460655188,"tags":{"amenity":"bicycle_rental","capacity":"24","name":"Östra Brobänken 30 - Ferry terminal","network":"Stockholm City Bikes","operator":"City Bikes","payment:cash":"no","payment:debit_cards":"no","payment:electronic_purses":"City Bikes Stockholm","ref":"98","self_service":"yes","website":"http://www.citybikes.se"},"relations":[],"meta":{}},"geometry":{"type":"Point","coordinates":[18.089017,59.324969]}},{"type":"Feature","id":"node/1484096909","properties":{"type":"node","id":1484096909,"tags":{"amenity":"bicycle_rental","capacity":"18","name":"Vasagatan 11","network":"Stockholm City Bikes","operator":"City Bikes","payment:cash":"no","payment:debit_cards":"no","payment:electronic_purses":"City Bikes Stockholm","ref":"87","self_service":"yes","website":"http://www.citybikes.se"},"relations":[],"meta":{}},"geometry":{"type":"Point","coordinates":[18.0568993,59.3329404]}},{"type":"Feature","id":"node/1484109772","properties":{"type":"node","id":1484109772,"tags":{"amenity":"bicycle_rental","capacity":"12","name":"Sankt Göransgatan 3","network":"Stockholm City Bikes","operator":"City Bikes","payment:cash":"no","payment:debit_cards":"no","payment:electronic_purses":"City Bikes Stockholm","ref":"9","self_service":"yes","website":"http://www.citybikes.se"},"relations":[],"meta":{}},"geometry":{"type":"Point","coordinates":[18.0172241,59.3367899]}},{"type":"Feature","id":"node/1484110313","properties":{"type":"node","id":1484110313,"tags":{"amenity":"bicycle_rental","capacity":"15","name":"Fleminggatan 115","network":"Stockholm City Bikes","operator":"City Bikes","payment:cash":"no","payment:debit_cards":"no","payment:electronic_purses":"City Bikes Stockholm","ref":"78","self_service":"yes","website":"http://www.citybikes.se"},"relations":[],"meta":{}},"geometry":{"type":"Point","coordinates":[18.0259895,59.3355062]}},{"type":"Feature","id":"node/1484113722","properties":{"type":"node","id":1484113722,"tags":{"amenity":"bicycle_rental","capacity":"8","name":"Fleminggatan 61","network":"Stockholm City Bikes","operator":"City Bikes","payment:cash":"no","payment:debit_cards":"no","payment:electronic_purses":"City Bikes Stockholm","ref":"88","self_service":"yes","website":"http://www.citybikes.se"},"relations":[],"meta":{}},"geometry":{"type":"Point","coordinates":[18.0365252,59.3339008]}},{"type":"Feature","id":"node/1484118104","properties":{"type":"node","id":1484118104,"tags":{"amenity":"bicycle_rental","capacity":"12","name":"Fleminggatan 39","network":"Stockholm City Bikes","operator":"City Bikes","payment:cash":"no","payment:debit_cards":"no","payment:electronic_purses":"City Bikes Stockholm","ref":"81","self_service":"yes","website":"http://www.citybikes.se"},"relations":[],"meta":{}},"geometry":{"type":"Point","coordinates":[18.0406156,59.3333251]}},{"type":"Feature","id":"node/1484121961","properties":{"type":"node","id":1484121961,"tags":{"amenity":"bicycle_rental","capacity":"18","name":"Fleminggatan 6","network":"Stockholm City Bikes","operator":"City Bikes","payment:cash":"no","payment:debit_cards":"no","payment:electronic_purses":"City Bikes Stockholm","ref":"10","self_service":"yes","website":"http://www.citybikes.se"},"relations":[],"meta":{}},"geometry":{"type":"Point","coordinates":[18.0474324,59.3326873]}},{"type":"Feature","id":"node/1484132051","properties":{"type":"node","id":1484132051,"tags":{"amenity":"bicycle_rental","capacity":"15","name":"Drottningholmsvägen 13, Fridhemsplan","network":"Stockholm City Bikes","operator":"City Bikes","payment:cash":"no","payment:debit_cards":"no","payment:electronic_purses":"City Bikes Stockholm","ref":"8","self_service":"yes","website":"http://www.citybikes.se"},"relations":[],"meta":{}},"geometry":{"type":"Point","coordinates":[18.0303884,59.3319784]}},{"type":"Feature","id":"node/1484135519","properties":{"type":"node","id":1484135519,"tags":{"amenity":"bicycle_rental","capacity":"12","name":"Sankt Eriksgatan 30","network":"Stockholm City Bikes","operator":"City Bikes","payment:cash":"no","payment:debit_cards":"no","payment:electronic_purses":"City Bikes Stockholm","ref":"63","self_service":"yes","website":"http://www.citybikes.se"},"relations":[],"meta":{}},"geometry":{"type":"Point","coordinates":[18.0318889,59.3331014]}},{"type":"Feature","id":"node/1484144247","properties":{"type":"node","id":1484144247,"tags":{"amenity":"bicycle_rental","capacity":"18","name":"Kungsholmstorg 15","network":"Stockholm City Bikes","operator":"City Bikes","payment:cash":"no","payment:debit_cards":"no","payment:electronic_purses":"City Bikes Stockholm","ref":"80","self_service":"yes","website":"http://www.citybikes.se"},"relations":[],"meta":{}},"geometry":{"type":"Point","coordinates":[18.0426085,59.3282532]}},{"type":"Feature","id":"node/1484151776","properties":{"type":"node","id":1484151776,"tags":{"amenity":"bicycle_rental","capacity":"12","name":"Stadshusbron","network":"Stockholm City Bikes","operator":"City Bikes","payment:cash":"no","payment:debit_cards":"no","payment:electronic_purses":"City Bikes Stockholm","ref":"43","self_service":"yes","website":"http://www.citybikes.se"},"relations":[],"meta":{}},"geometry":{"type":"Point","coordinates":[18.0555046,59.3281546]}},{"type":"Feature","id":"node/1484159725","properties":{"type":"node","id":1484159725,"tags":{"amenity":"bicycle_rental","capacity":"12","name":"Klarabergsgatan 20 - Sergels torg","network":"Stockholm City Bikes","operator":"City Bikes","payment:cash":"no","payment:debit_cards":"no","payment:electronic_purses":"City Bikes Stockholm","ref":"35","self_service":"yes","website":"http://www.citybikes.se"},"relations":[],"meta":{}},"geometry":{"type":"Point","coordinates":[18.0633795,59.332344]}},{"type":"Feature","id":"node/1484163794","properties":{"type":"node","id":1484163794,"tags":{"amenity":"bicycle_rental","capacity":"6","name":"Klarabergsgatan 56","network":"Stockholm City Bikes","operator":"City Bikes","payment:cash":"no","payment:debit_cards":"no","payment:electronic_purses":"City Bikes Stockholm","ref":"41","self_service":"yes","website":"http://www.citybikes.se"},"relations":[],"meta":{}},"geometry":{"type":"Point","coordinates":[18.0601823,59.331783]}},{"type":"Feature","id":"node/1611299359","properties":{"type":"node","id":1611299359,"tags":{"amenity":"bicycle_rental"},"relations":[],"meta":{}},"geometry":{"type":"Point","coordinates":[19.1090819,59.851236]}},{"type":"Feature","id":"node/1746061354","properties":{"type":"node","id":1746061354,"tags":{"amenity":"bicycle_rental","capacity":"15","name":"Kvarnholmsvägen 2 - Danvikstull","network":"Stockholm City Bikes","operator":"City Bikes","payment:cash":"no","payment:debit_cards":"no","payment:electronic_purses":"City Bikes Stockholm","ref":"74","self_service":"yes","website":"http://www.citybikes.se"},"relations":[],"meta":{}},"geometry":{"type":"Point","coordinates":[18.1072758,59.311791]}},{"type":"Feature","id":"node/1766928646","properties":{"type":"node","id":1766928646,"tags":{"amenity":"bicycle_rental","capacity":"24","name":"Lidingö Stockholmsvägen / Björnvägen","network":"Stockholm City Bikes","operator":"City Bikes","payment:cash":"no","payment:debit_cards":"no","payment:electronic_purses":"City Bikes Stockholm","ref":"105","self_service":"yes","website":"http://www.citybikes.se"},"relations":[],"meta":{}},"geometry":{"type":"Point","coordinates":[18.1249005,59.3641991]}},{"type":"Feature","id":"node/1766934992","properties":{"type":"node","id":1766934992,"tags":{"amenity":"bicycle_rental","capacity":"24","name":"Lidingö Stockholmsvägen 46","network":"Stockholm City Bikes","operator":"City Bikes","payment:cash":"no","payment:debit_cards":"no","payment:electronic_purses":"City Bikes Stockholm","ref":"110","self_service":"yes","website":"http://www.citybikes.se"},"relations":[],"meta":{}},"geometry":{"type":"Point","coordinates":[18.1299002,59.364877]}},{"type":"Feature","id":"node/1766950451","properties":{"type":"node","id":1766950451,"tags":{"amenity":"bicycle_rental","capacity":"24","name":"Lidingö Bodalsvägen - Baggeby Centrum","network":"Stockholm City Bikes","operator":"City Bikes","payment:cash":"no","payment:debit_cards":"no","payment:electronic_purses":"City Bikes Stockholm","ref":"109","self_service":"yes","website":"http://www.citybikes.se"},"relations":[],"meta":{}},"geometry":{"type":"Point","coordinates":[18.1347711,59.3555817]}},{"type":"Feature","id":"node/1766955999","properties":{"type":"node","id":1766955999,"tags":{"amenity":"bicycle_rental","capacity":"18","name":"Kaknästornet / Mörka kroken 28","network":"Stockholm City Bikes","operator":"City Bikes","payment:cash":"no","payment:debit_cards":"no","payment:electronic_purses":"City Bikes Stockholm","ref":"73","self_service":"yes","website":"http://www.citybikes.se"},"relations":[],"meta":{}},"geometry":{"type":"Point","coordinates":[18.1271965,59.3347236]}},{"type":"Feature","id":"node/1766956406","properties":{"type":"node","id":1766956406,"tags":{"amenity":"bicycle_rental","capacity":"12","name":"Valhallavägen 213 a","network":"Stockholm City Bikes","operator":"City Bikes","payment:cash":"no","payment:debit_cards":"no","payment:electronic_purses":"City Bikes Stockholm","ref":"95","self_service":"yes","website":"http://www.citybikes.se"},"relations":[],"meta":{}},"geometry":{"type":"Point","coordinates":[18.102328,59.3383725]}},{"type":"Feature","id":"node/1766961327","properties":{"type":"node","id":1766961327,"tags":{"amenity":"bicycle_rental","capacity":"12","name":"Karlavägen 115","network":"Stockholm City Bikes","operator":"City Bikes","payment:cash":"no","payment:debit_cards":"no","payment:electronic_purses":"City Bikes Stockholm","ref":"67","self_service":"yes","website":"http://www.citybikes.se"},"relations":[],"meta":{}},"geometry":{"type":"Point","coordinates":[18.099157,59.3358314]}},{"type":"Feature","id":"node/1766962502","properties":{"type":"node","id":1766962502,"tags":{"amenity":"bicycle_rental","capacity":"12","name":"Östermalmsgatan 90","network":"Stockholm City Bikes","operator":"City Bikes","payment:cash":"no","payment:debit_cards":"no","payment:electronic_purses":"City Bikes Stockholm","ref":"52","self_service":"yes","website":"http://www.citybikes.se"},"relations":[],"meta":{}},"geometry":{"type":"Point","coordinates":[18.0878516,59.3397088]}},{"type":"Feature","id":"node/1766964329","properties":{"type":"node","id":1766964329,"tags":{"amenity":"bicycle_rental","capacity":"6","name":"Östermalmsgatan 87","network":"Stockholm City Bikes","operator":"City Bikes","payment:cash":"no","payment:debit_cards":"no","payment:electronic_purses":"City Bikes Stockholm","ref":"19","self_service":"yes","website":"http://www.citybikes.se"},"relations":[],"meta":{}},"geometry":{"type":"Point","coordinates":[18.0872372,59.3403234]}},{"type":"Feature","id":"node/1766970914","properties":{"type":"node","id":1766970914,"tags":{"amenity":"bicycle_rental","capacity":"15","name":"Narvavägen 15","network":"Stockholm City Bikes","operator":"City Bikes","payment:cash":"no","payment:debit_cards":"no","payment:electronic_purses":"City Bikes Stockholm","ref":"107","self_service":"yes","website":"http://www.citybikes.se"},"relations":[],"meta":{}},"geometry":{"type":"Point","coordinates":[18.0917004,59.3350434]}},{"type":"Feature","id":"node/1766976354","properties":{"type":"node","id":1766976354,"tags":{"amenity":"bicycle_rental","capacity":"24","name":"Strandvägen 56","network":"Stockholm City Bikes","operator":"City Bikes","payment:cash":"no","payment:debit_cards":"no","payment:electronic_purses":"City Bikes Stockholm","ref":"93","self_service":"yes","website":"http://www.citybikes.se"},"relations":[],"meta":{}},"geometry":{"type":"Point","coordinates":[18.0948547,59.3316159]}},{"type":"Feature","id":"node/1766979942","properties":{"type":"node","id":1766979942,"tags":{"amenity":"bicycle_rental","capacity":"15","name":"Storgatan 27","network":"Stockholm City Bikes","operator":"City Bikes","payment:cash":"no","payment:debit_cards":"no","payment:electronic_purses":"City Bikes Stockholm","ref":"112","self_service":"yes","website":"http://www.citybikes.se"},"relations":[],"meta":{}},"geometry":{"type":"Point","coordinates":[18.0858403,59.3346252]}},{"type":"Feature","id":"node/1766998785","properties":{"type":"node","id":1766998785,"tags":{"amenity":"bicycle_rental","capacity":"21","name":"Nybrokajen 11 / Raul Wallenbergs torg","network":"Stockholm City Bikes","operator":"City Bikes","payment:cash":"no","payment:debit_cards":"no","payment:electronic_purses":"City Bikes Stockholm","ref":"111","self_service":"yes","website":"http://www.citybikes.se"},"relations":[],"meta":{}},"geometry":{"type":"Point","coordinates":[18.0758218,59.3317437]}},{"type":"Feature","id":"node/1767017208","properties":{"type":"node","id":1767017208,"tags":{"amenity":"bicycle_rental","capacity":"18","name":"Upplandsgatan 28","network":"Stockholm City Bikes","operator":"City Bikes","payment:cash":"no","payment:debit_cards":"no","payment:electronic_purses":"City Bikes Stockholm","ref":"113","self_service":"yes","website":"http://www.citybikes.se"},"relations":[],"meta":{}},"geometry":{"type":"Point","coordinates":[18.0513053,59.340101]}},{"type":"Feature","id":"node/1767023615","properties":{"type":"node","id":1767023615,"tags":{"amenity":"bicycle_rental","capacity":"18","name":"Olof Palmes gata 31","network":"Stockholm City Bikes","operator":"City Bikes","payment:cash":"no","payment:debit_cards":"no","payment:electronic_purses":"City Bikes Stockholm","ref":"104","self_service":"yes","website":"http://www.citybikes.se"},"relations":[],"meta":{}},"geometry":{"type":"Point","coordinates":[18.0544708,59.3344579]}},{"type":"Feature","id":"node/1768974349","properties":{"type":"node","id":1768974349,"tags":{"amenity":"bicycle_rental","capacity":"12","name":"Birger Jarlsgatan 12","network":"Stockholm City Bikes","operator":"City Bikes","payment:cash":"no","payment:debit_cards":"no","payment:electronic_purses":"City Bikes Stockholm","ref":"36","self_service":"yes","website":"http://www.citybikes.se"},"relations":[],"meta":{}},"geometry":{"type":"Point","coordinates":[18.0745043,59.3344703]}},{"type":"Feature","id":"node/1768980289","properties":{"type":"node","id":1768980289,"tags":{"amenity":"bicycle_rental","capacity":"18","name":"Birger Jarlsgatan 30 / Engebrektsplan","network":"Stockholm City Bikes","operator":"City Bikes","payment:cash":"no","payment:debit_cards":"no","payment:electronic_purses":"City Bikes Stockholm","ref":"89","self_service":"yes","website":"http://www.citybikes.se"},"relations":[],"meta":{}},"geometry":{"type":"Point","coordinates":[18.0700893,59.3378591]}},{"type":"Feature","id":"node/1768982670","properties":{"type":"node","id":1768982670,"tags":{"amenity":"bicycle_rental","capacity":"9","name":"Karlavägen 30, Runebergsplan","network":"Stockholm City Bikes","operator":"City Bikes","payment:cash":"no","payment:debit_cards":"no","payment:electronic_purses":"City Bikes Stockholm","ref":"45","self_service":"yes","website":"http://www.citybikes.se"},"relations":[],"meta":{}},"geometry":{"type":"Point","coordinates":[18.0702714,59.3416215]}},{"type":"Feature","id":"node/1768990855","properties":{"type":"node","id":1768990855,"tags":{"amenity":"bicycle_rental","capacity":"15","name":"Karlavägen 15 / Rådmansgatan 12","network":"Stockholm City Bikes","operator":"City Bikes","payment:cash":"no","payment:debit_cards":"no","payment:electronic_purses":"City Bikes Stockholm","ref":"91","self_service":"yes","website":"http://www.citybikes.se"},"relations":[],"meta":{}},"geometry":{"type":"Point","coordinates":[18.0681292,59.3430242]}},{"type":"Feature","id":"node/1768998763","properties":{"type":"node","id":1768998763,"tags":{"amenity":"bicycle_rental","capacity":"30","name":"Valhallavägen 77 a","network":"Stockholm City Bikes","operator":"City Bikes","payment:cash":"no","payment:debit_cards":"no","payment:electronic_purses":"City Bikes Stockholm","ref":"84","self_service":"yes","website":"http://www.citybikes.se"},"relations":[],"meta":{}},"geometry":{"type":"Point","coordinates":[18.0709707,59.3458094]}},{"type":"Feature","id":"node/1769002826","properties":{"type":"node","id":1769002826,"tags":{"amenity":"bicycle_rental","capacity":"15","name":"Valhallavägen 84","network":"Stockholm City Bikes","operator":"City Bikes","payment:cash":"no","payment:debit_cards":"no","payment:electronic_purses":"City Bikes Stockholm","ref":"86","self_service":"yes","website":"http://www.citybikes.se"},"relations":[],"meta":{}},"geometry":{"type":"Point","coordinates":[18.0737865,59.3448316]}},{"type":"Feature","id":"node/1769007701","properties":{"type":"node","id":1769007701,"tags":{"amenity":"bicycle_rental","capacity":"18","name":"Valhallavägen 102","network":"Stockholm City Bikes","operator":"City Bikes","payment:cash":"no","payment:debit_cards":"no","payment:electronic_purses":"City Bikes Stockholm","ref":"106","self_service":"yes","website":"http://www.citybikes.se"},"relations":[],"meta":{}},"geometry":{"type":"Point","coordinates":[18.0792904,59.3435406]}},{"type":"Feature","id":"node/1769009900","properties":{"type":"node","id":1769009900,"tags":{"amenity":"bicycle_rental","capacity":"12","name":"Valhallavägen 114","network":"Stockholm City Bikes","operator":"City Bikes","payment:cash":"no","payment:debit_cards":"no","payment:electronic_purses":"City Bikes Stockholm","ref":"6","self_service":"yes","website":"http://www.citybikes.se"},"relations":[],"meta":{}},"geometry":{"type":"Point","coordinates":[18.0812708,59.3426609]}},{"type":"Feature","id":"node/1769020391","properties":{"type":"node","id":1769020391,"tags":{"amenity":"bicycle_rental","capacity":"24","name":"Sveavägen 170 / Wenner-Gren Center","network":"Stockholm City Bikes","operator":"City Bikes","payment:cash":"no","payment:debit_cards":"no","payment:electronic_purses":"City Bikes Stockholm","ref":"103","self_service":"yes","website":"http://www.citybikes.se"},"relations":[],"meta":{}},"geometry":{"type":"Point","coordinates":[18.0477423,59.3506214]}},{"type":"Feature","id":"node/1769027711","properties":{"type":"node","id":1769027711,"tags":{"amenity":"bicycle_rental","capacity":"15","name":"Dannemoragatan 13 / Norra Stationsgatan","network":"Stockholm City Bikes","operator":"City Bikes","payment:cash":"no","payment:debit_cards":"no","payment:electronic_purses":"City Bikes Stockholm","ref":"72","self_service":"yes","website":"http://www.citybikes.se"},"relations":[],"meta":{}},"geometry":{"type":"Point","coordinates":[18.0429091,59.3492439]}},{"type":"Feature","id":"node/1769029559","properties":{"type":"node","id":1769029559,"tags":{"amenity":"bicycle_rental","capacity":"15","name":"Vanadisplan 4","network":"Stockholm City Bikes","operator":"City Bikes","payment:cash":"no","payment:debit_cards":"no","payment:electronic_purses":"City Bikes Stockholm","ref":"92","self_service":"yes","website":"http://www.citybikes.se"},"relations":[],"meta":{}},"geometry":{"type":"Point","coordinates":[18.0393146,59.345287]}},{"type":"Feature","id":"node/1769031684","properties":{"type":"node","id":1769031684,"tags":{"amenity":"bicycle_rental","capacity":"12","name":"Upplandsgatan 84","network":"Stockholm City Bikes","operator":"City Bikes","payment:cash":"no","payment:debit_cards":"no","payment:electronic_purses":"City Bikes Stockholm","ref":"99","self_service":"yes","website":"http://www.citybikes.se"},"relations":[],"meta":{}},"geometry":{"type":"Point","coordinates":[18.0448096,59.3465124]}},{"type":"Feature","id":"node/1769032773","properties":{"type":"node","id":1769032773,"tags":{"amenity":"bicycle_rental","capacity":"15","name":"Sveavägen 127","network":"Stockholm City Bikes","operator":"City Bikes","payment:cash":"no","payment:debit_cards":"no","payment:electronic_purses":"City Bikes Stockholm","ref":"57","self_service":"yes","website":"http://www.citybikes.se"},"relations":[],"meta":{}},"geometry":{"type":"Point","coordinates":[18.0521158,59.3480268]}},{"type":"Feature","id":"node/1769033962","properties":{"type":"node","id":1769033962,"tags":{"amenity":"bicycle_rental","capacity":"12","name":"Sveavägen 110","network":"Stockholm City Bikes","operator":"City Bikes","payment:cash":"no","payment:debit_cards":"no","payment:electronic_purses":"City Bikes Stockholm","ref":"40","self_service":"yes","website":"http://www.citybikes.se"},"relations":[],"meta":{}},"geometry":{"type":"Point","coordinates":[18.0562789,59.3434921]}},{"type":"Feature","id":"node/1769037894","properties":{"type":"node","id":1769037894,"tags":{"amenity":"bicycle_rental","capacity":"12","name":"Sveavägen 53","network":"Stockholm City Bikes","operator":"City Bikes","payment:cash":"no","payment:debit_cards":"no","payment:electronic_purses":"City Bikes Stockholm","ref":"60","self_service":"yes","website":"http://www.citybikes.se"},"relations":[],"meta":{}},"geometry":{"type":"Point","coordinates":[18.0587269,59.3403273]}},{"type":"Feature","id":"node/1769040928","properties":{"type":"node","id":1769040928,"tags":{"amenity":"bicycle_rental","capacity":"9","name":"Sveavägen 66","network":"Stockholm City Bikes","operator":"City Bikes","payment:cash":"no","payment:debit_cards":"no","payment:electronic_purses":"City Bikes Stockholm","ref":"39","self_service":"yes","website":"http://www.citybikes.se"},"relations":[],"meta":{}},"geometry":{"type":"Point","coordinates":[18.0604282,59.3390381]}},{"type":"Feature","id":"node/1769041527","properties":{"type":"node","id":1769041527,"tags":{"amenity":"bicycle_rental","capacity":"12","name":"Sveavägen 35","network":"Stockholm City Bikes","operator":"City Bikes","payment:cash":"no","payment:debit_cards":"no","payment:electronic_purses":"City Bikes Stockholm","ref":"56","self_service":"yes","website":"http://www.citybikes.se"},"relations":[],"meta":{}},"geometry":{"type":"Point","coordinates":[18.0618383,59.3371428]}},{"type":"Feature","id":"node/1769041797","properties":{"type":"node","id":1769041797,"tags":{"amenity":"bicycle_rental","capacity":"12","name":"Sveavägen 31","network":"Stockholm City Bikes","operator":"City Bikes","payment:cash":"no","payment:debit_cards":"no","payment:electronic_purses":"City Bikes Stockholm","ref":"55","self_service":"yes","website":"http://www.citybikes.se"},"relations":[],"meta":{}},"geometry":{"type":"Point","coordinates":[18.0623207,59.3366283]}},{"type":"Feature","id":"node/1769042352","properties":{"type":"node","id":1769042352,"tags":{"amenity":"bicycle_rental","capacity":"9","name":"Kungsgatan 24","network":"Stockholm City Bikes","operator":"City Bikes","payment:cash":"no","payment:debit_cards":"no","payment:electronic_purses":"City Bikes Stockholm","ref":"53","self_service":"yes","website":"http://www.citybikes.se"},"relations":[],"meta":{}},"geometry":{"type":"Point","coordinates":[18.0672726,59.3360259]}},{"type":"Feature","id":"node/1770005811","properties":{"type":"node","id":1770005811,"tags":{"amenity":"bicycle_rental","capacity":"12","name":"Renstiernasgatan 18","network":"Stockholm City Bikes","operator":"City Bikes","payment:cash":"no","payment:debit_cards":"no","payment:electronic_purses":"City Bikes Stockholm","ref":"17","self_service":"yes","website":"http://www.citybikes.se"},"relations":[],"meta":{}},"geometry":{"type":"Point","coordinates":[18.0837468,59.3152938]}},{"type":"Feature","id":"node/1770007842","properties":{"type":"node","id":1770007842,"tags":{"amenity":"bicycle_rental","capacity":"24","name":"Folkungagatan 164, Londonviadukten","network":"Stockholm City Bikes","operator":"City Bikes","payment:cash":"no","payment:debit_cards":"no","payment:electronic_purses":"City Bikes Stockholm","ref":"70","self_service":"yes","website":"http://www.citybikes.se"},"relations":[],"meta":{}},"geometry":{"type":"Point","coordinates":[18.0962986,59.3147418]}},{"type":"Feature","id":"node/1770023216","properties":{"type":"node","id":1770023216,"tags":{"amenity":"bicycle_rental","capacity":"9","name":"Götgatan 71","network":"Stockholm City Bikes","operator":"City Bikes","payment:cash":"no","payment:debit_cards":"no","payment:electronic_purses":"City Bikes Stockholm","ref":"27","self_service":"yes","website":"http://www.citybikes.se"},"relations":[],"meta":{}},"geometry":{"type":"Point","coordinates":[18.0746912,59.3118386]}},{"type":"Feature","id":"node/1770025673","properties":{"type":"node","id":1770025673,"tags":{"amenity":"bicycle_rental","capacity":"12","name":"Götgatan 96","network":"Stockholm City Bikes","operator":"City Bikes","payment:cash":"no","payment:debit_cards":"no","payment:electronic_purses":"City Bikes Stockholm","ref":"2","self_service":"yes","website":"http://www.citybikes.se"},"relations":[],"meta":{}},"geometry":{"type":"Point","coordinates":[18.0754251,59.3091522]}},{"type":"Feature","id":"node/1770041415","properties":{"type":"node","id":1770041415,"tags":{"amenity":"bicycle_rental","capacity":"12","name":"Ringvägen 138","network":"Stockholm City Bikes","operator":"City Bikes","payment:cash":"no","payment:debit_cards":"no","payment:electronic_purses":"City Bikes Stockholm","ref":"47","self_service":"yes","website":"http://www.citybikes.se"},"relations":[],"meta":{}},"geometry":{"type":"Point","coordinates":[18.0824088,59.3086905]}},{"type":"Feature","id":"node/1770043006","properties":{"type":"node","id":1770043006,"tags":{"amenity":"bicycle_rental","capacity":"9","name":"Ringvägen 125","network":"Stockholm City Bikes","operator":"City Bikes","payment:cash":"no","payment:debit_cards":"no","payment:electronic_purses":"City Bikes Stockholm","ref":"48","self_service":"yes","website":"http://www.citybikes.se"},"relations":[],"meta":{}},"geometry":{"type":"Point","coordinates":[18.0773395,59.3079676]}},{"type":"Feature","id":"node/1770044707","properties":{"type":"node","id":1770044707,"tags":{"amenity":"bicycle_rental","capacity":"12","name":"Hammarby Allé 18","network":"Stockholm City Bikes","operator":"City Bikes","payment:cash":"no","payment:debit_cards":"no","payment:electronic_purses":"City Bikes Stockholm","ref":"33","self_service":"yes","website":"http://www.citybikes.se"},"relations":[],"meta":{}},"geometry":{"type":"Point","coordinates":[18.088208,59.3025949]}},{"type":"Feature","id":"node/1770057268","properties":{"type":"node","id":1770057268,"tags":{"amenity":"bicycle_rental","capacity":"15","name":"Långholmsgatan 8","network":"Stockholm City Bikes","operator":"City Bikes","payment:cash":"no","payment:debit_cards":"no","payment:electronic_purses":"City Bikes Stockholm","ref":"85","self_service":"yes","website":"http://www.citybikes.se"},"relations":[],"meta":{}},"geometry":{"type":"Point","coordinates":[18.0317801,59.3184066]}},{"type":"Feature","id":"node/1770063136","properties":{"type":"node","id":1770063136,"tags":{"amenity":"bicycle_rental","capacity":"12","name":"Sankt Eriksgatan 80, Sant Eriksplan","network":"Stockholm City Bikes","operator":"City Bikes","payment:cash":"no","payment:debit_cards":"no","payment:electronic_purses":"City Bikes Stockholm","ref":"15","self_service":"yes","website":"http://www.citybikes.se"},"relations":[],"meta":{}},"geometry":{"type":"Point","coordinates":[18.037111,59.3397265]}},{"type":"Feature","id":"node/1770082764","properties":{"type":"node","id":1770082764,"tags":{"amenity":"bicycle_rental","capacity":"6","name":"Torsgatan / Odengatan","network":"Stockholm City Bikes","operator":"City Bikes","payment:cash":"no","payment:debit_cards":"no","payment:electronic_purses":"City Bikes Stockholm","ref":"30","self_service":"yes","website":"http://www.citybikes.se"},"relations":[],"meta":{}},"geometry":{"type":"Point","coordinates":[18.0391451,59.3395316]}},{"type":"Feature","id":"node/1770088556","properties":{"type":"node","id":1770088556,"tags":{"amenity":"bicycle_rental","capacity":"12","name":"Vattugatan 9","network":"Stockholm City Bikes","operator":"City Bikes","payment:cash":"no","payment:debit_cards":"no","payment:electronic_purses":"City Bikes Stockholm","ref":"31","self_service":"yes","website":"http://www.citybikes.se"},"relations":[],"meta":{}},"geometry":{"type":"Point","coordinates":[18.0642997,59.3306054]}},{"type":"Feature","id":"node/1770094620","properties":{"type":"node","id":1770094620,"tags":{"amenity":"bicycle_rental","capacity":"9","name":"Karlbergsvägen 38","network":"Stockholm City Bikes","operator":"City Bikes","payment:cash":"no","payment:debit_cards":"no","payment:electronic_purses":"City Bikes Stockholm","ref":"37","self_service":"yes","website":"http://www.citybikes.se"},"relations":[],"meta":{}},"geometry":{"type":"Point","coordinates":[18.0412358,59.3428058]}},{"type":"Feature","id":"node/1770876442","properties":{"type":"node","id":1770876442,"tags":{"amenity":"bicycle_rental","capacity":"12","name":"Sankt Eriksgatan 95","network":"Stockholm City Bikes","operator":"City Bikes","payment:cash":"no","payment:debit_cards":"no","payment:electronic_purses":"City Bikes Stockholm","ref":"62","self_service":"yes","website":"http://www.citybikes.se"},"relations":[],"meta":{}},"geometry":{"type":"Point","coordinates":[18.0386559,59.3431526]}},{"type":"Feature","id":"node/1770885466","properties":{"type":"node","id":1770885466,"tags":{"amenity":"bicycle_rental","capacity":"9","name":"Birkagatan 7","network":"Stockholm City Bikes","operator":"City Bikes","payment:cash":"no","payment:debit_cards":"no","payment:electronic_purses":"City Bikes Stockholm","ref":"64","self_service":"yes","website":"http://www.citybikes.se"},"relations":[],"meta":{}},"geometry":{"type":"Point","coordinates":[18.0336325,59.3396358]}},{"type":"Feature","id":"node/1770914901","properties":{"type":"node","id":1770914901,"tags":{"amenity":"bicycle_rental","capacity":"18","name":"Sankt Eriksgatan 100","network":"Stockholm City Bikes","operator":"City Bikes","payment:cash":"no","payment:debit_cards":"no","payment:electronic_purses":"City Bikes Stockholm","ref":"77","self_service":"yes","website":"http://www.citybikes.se"},"relations":[],"meta":{}},"geometry":{"type":"Point","coordinates":[18.0393482,59.3435727]}},{"type":"Feature","id":"node/1770934672","properties":{"type":"node","id":1770934672,"tags":{"amenity":"bicycle_rental","capacity":"12","name":"Karlbergsvägen 35","network":"Stockholm City Bikes","operator":"City Bikes","payment:cash":"no","payment:debit_cards":"no","payment:electronic_purses":"City Bikes Stockholm","ref":"79","self_service":"yes","website":"http://www.citybikes.se"},"relations":[],"meta":{}},"geometry":{"type":"Point","coordinates":[18.0398229,59.342487]}},{"type":"Feature","id":"node/1787046594","properties":{"type":"node","id":1787046594,"tags":{"amenity":"bicycle_rental","capacity":"15","name":"Norr Mälarstrand 72","network":"Stockholm City Bikes","operator":"City Bikes","payment:cash":"no","payment:debit_cards":"no","payment:electronic_purses":"City Bikes Stockholm","ref":"114","self_service":"yes","website":"http://www.citybikes.se"},"relations":[],"meta":{}},"geometry":{"type":"Point","coordinates":[18.0318465,59.3283159]}},{"type":"Feature","id":"node/1801777560","properties":{"type":"node","id":1801777560,"tags":{"amenity":"bicycle_rental","name":"Sjötorps Cykeluthyrning","phone":"+46 501 51133","website":"www.cykelsemester.se"},"relations":[],"meta":{}},"geometry":{"type":"Point","coordinates":[13.9807534,58.8370394]}},{"type":"Feature","id":"node/1804526112","properties":{"type":"node","id":1804526112,"tags":{"amenity":"bicycle_rental","capacity":"20","name":"Linnéplatsen","network":"Styr & Ställ Göteborg","operator":"JCDecaux","ref":"40","source":"http://data.goteborg.se/StyrOchStall/v0.1/GetBikeStation/40/<user_key>"},"relations":[],"meta":{}},"geometry":{"type":"Point","coordinates":[11.9516547,57.6902783]}},{"type":"Feature","id":"node/1814611559","properties":{"type":"node","id":1814611559,"tags":{"amenity":"bicycle_rental","network":"Styr & Ställ Göteborg","operator":"JCDecaux","source":"survey"},"relations":[],"meta":{}},"geometry":{"type":"Point","coordinates":[11.9618148,57.6944901]}},{"type":"Feature","id":"node/1874693896","properties":{"type":"node","id":1874693896,"tags":{"amenity":"bicycle_rental","network":"Styr & Ställ Göteborg","operator":"JCDecaux"},"relations":[],"meta":{}},"geometry":{"type":"Point","coordinates":[11.9600313,57.7032946]}},{"type":"Feature","id":"node/1911692438","properties":{"type":"node","id":1911692438,"tags":{"amenity":"bicycle_rental","capacity":"18","name":"Karlbergs strand 19 / Ekelundsbron","network":"Stockholm City Bikes","operator":"City Bikes","payment:cash":"no","payment:debit_cards":"no","payment:electronic_purses":"City Bikes Stockholm","ref":"152","self_service":"yes","website":"http://www.citybikes.se"},"relations":[],"meta":{}},"geometry":{"type":"Point","coordinates":[18.0126961,59.3412569]}},{"type":"Feature","id":"node/1911695054","properties":{"type":"node","id":1911695054,"tags":{"amenity":"bicycle_rental","capacity":"18","name":"Ekelundsvägen 20","network":"Stockholm City Bikes","operator":"City Bikes","payment:cash":"no","payment:debit_cards":"no","payment:electronic_purses":"City Bikes Stockholm","ref":"150","self_service":"yes","website":"http://www.citybikes.se"},"relations":[],"meta":{}},"geometry":{"type":"Point","coordinates":[18.0070474,59.345048]}},{"type":"Feature","id":"node/1911699094","properties":{"type":"node","id":1911699094,"tags":{"amenity":"bicycle_rental","capacity":"15","name":"Huvudsta Centrum","network":"Stockholm City Bikes","operator":"City Bikes","payment:cash":"no","payment:debit_cards":"no","payment:electronic_purses":"City Bikes Stockholm","ref":"151","self_service":"yes","website":"http://www.citybikes.se"},"relations":[],"meta":{}},"geometry":{"type":"Point","coordinates":[17.9875745,59.3499695]}},{"type":"Feature","id":"node/1911706521","properties":{"type":"node","id":1911706521,"tags":{"amenity":"bicycle_rental","capacity":"24","name":"Solna Centrum / Solnaplan","network":"Stockholm City Bikes","operator":"City Bikes","payment:cash":"no","payment:debit_cards":"no","payment:electronic_purses":"City Bikes Stockholm","ref":"153","self_service":"yes","website":"http://www.citybikes.se"},"relations":[],"meta":{}},"geometry":{"type":"Point","coordinates":[17.9995969,59.3586477]}},{"type":"Feature","id":"node/1911708859","properties":{"type":"node","id":1911708859,"tags":{"amenity":"bicycle_rental","capacity":"18","name":"Solnavägen / Tomtebodavägen","network":"Stockholm City Bikes","operator":"City Bikes","payment:cash":"no","payment:debit_cards":"no","payment:electronic_purses":"City Bikes Stockholm","ref":"154","self_service":"yes","website":"http://www.citybikes.se"},"relations":[],"meta":{}},"geometry":{"type":"Point","coordinates":[18.0236436,59.3505948]}},{"type":"Feature","id":"node/1932731935","properties":{"type":"node","id":1932731935,"tags":{"amenity":"bicycle_rental","capacity":"15","network":"Styr & Ställ Göteborg","operator":"JCDecaux","source":"survey"},"relations":[],"meta":{}},"geometry":{"type":"Point","coordinates":[11.9766373,57.6983381]}},{"type":"Feature","id":"node/2305175768","properties":{"type":"node","id":2305175768,"tags":{"amenity":"bicycle_rental","name":"Hamnpiren bicykle rental"},"relations":[],"meta":{}},"geometry":{"type":"Point","coordinates":[15.0407042,58.5339877]}},{"type":"Feature","id":"node/2377342872","properties":{"type":"node","id":2377342872,"tags":{"amenity":"bicycle_rental","contact:phone":"+46708319234","name":"Klostergården vandrarhem"},"relations":[],"meta":{}},"geometry":{"type":"Point","coordinates":[13.6534846,58.3859778]}},{"type":"Feature","id":"node/2399062141","properties":{"type":"node","id":2399062141,"tags":{"amenity":"bicycle_rental","name":"Järvsö Bergcykel Park"},"relations":[],"meta":{}},"geometry":{"type":"Point","coordinates":[16.1596978,61.7124395]}},{"type":"Feature","id":"node/2623856352","properties":{"type":"node","id":2623856352,"tags":{"amenity":"bicycle_rental","name":"Ravlunda Cykel","website":"http://www.ravlundacykel.se"},"relations":[],"meta":{}},"geometry":{"type":"Point","coordinates":[14.1528851,55.711987]}},{"type":"Feature","id":"node/2742339236","properties":{"type":"node","id":2742339236,"tags":{"amenity":"bicycle_rental"},"relations":[],"meta":{}},"geometry":{"type":"Point","coordinates":[17.6207024,59.8600449]}},{"type":"Feature","id":"node/2888070869","properties":{"type":"node","id":2888070869,"tags":{"amenity":"bicycle_rental","capacity":"20","network":"Styr & Ställ Göteborg","operator":"JC Decaux"},"relations":[],"meta":{}},"geometry":{"type":"Point","coordinates":[11.9902576,57.7070572]}},{"type":"Feature","id":"node/2995728119","properties":{"type":"node","id":2995728119,"tags":{"amenity":"bicycle_rental","name":"Allhelgonakyrkan","network":"Lundahoj","ref":"12","website":"http://lundahoj.se/"},"relations":[],"meta":{}},"geometry":{"type":"Point","coordinates":[13.1925717,55.7101421]}},{"type":"Feature","id":"node/2995728120","properties":{"type":"node","id":2995728120,"tags":{"amenity":"bicycle_rental","fixme":"position","name":"BMC","network":"Lundahoj","ref":"10","website":"http://lundahoj.se/"},"relations":[],"meta":{}},"geometry":{"type":"Point","coordinates":[13.2019355,55.7132096]}},{"type":"Feature","id":"node/2995728121","properties":{"type":"node","id":2995728121,"tags":{"amenity":"bicycle_rental","name":"Bantorget","network":"Lundahoj","ref":"2","website":"http://lundahoj.se/"},"relations":[],"meta":{}},"geometry":{"type":"Point","coordinates":[13.1873932,55.7043569]}},{"type":"Feature","id":"node/2995728122","properties":{"type":"node","id":2995728122,"tags":{"amenity":"bicycle_rental","name":"Botaniska trädgården","network":"Lundahoj","ref":"7","website":"http://lundahoj.se/"},"relations":[],"meta":{}},"geometry":{"type":"Point","coordinates":[13.2011597,55.7060131]}},{"type":"Feature","id":"node/2995728123","properties":{"type":"node","id":2995728123,"tags":{"amenity":"bicycle_rental","fixme":"position","name":"Fysiologen","network":"Lundahoj","ref":"17","website":"http://lundahoj.se/"},"relations":[],"meta":{}},"geometry":{"type":"Point","coordinates":[13.2028366,55.711095]}},{"type":"Feature","id":"node/2995728124","properties":{"type":"node","id":2995728124,"tags":{"amenity":"bicycle_rental","name":"Galten","network":"Lundahoj","ref":"6","website":"http://lundahoj.se/"},"relations":[],"meta":{}},"geometry":{"type":"Point","coordinates":[13.1957626,55.7009294]}},{"type":"Feature","id":"node/2995728125","properties":{"type":"node","id":2995728125,"tags":{"amenity":"bicycle_rental","name":"Ideon Norr","network":"Lundahoj","ref":"13","website":"http://lundahoj.se/"},"relations":[],"meta":{}},"geometry":{"type":"Point","coordinates":[13.2148382,55.7154824]}},{"type":"Feature","id":"node/2995728126","properties":{"type":"node","id":2995728126,"tags":{"amenity":"bicycle_rental","name":"Ideon Söder","network":"Lundahoj","ref":"14","website":"http://lundahoj.se/"},"relations":[],"meta":{}},"geometry":{"type":"Point","coordinates":[13.2137585,55.7129565]}},{"type":"Feature","id":"node/2995728127","properties":{"type":"node","id":2995728127,"tags":{"amenity":"bicycle_rental","name":"LTH","network":"Lundahoj","ref":"11","website":"http://lundahoj.se/"},"relations":[],"meta":{}},"geometry":{"type":"Point","coordinates":[13.2083268,55.7124903]}},{"type":"Feature","id":"node/2995728128","properties":{"type":"node","id":2995728128,"tags":{"amenity":"bicycle_rental","name":"Lunds Central","network":"Lundahoj","ref":"1","website":"http://lundahoj.se/"},"relations":[],"meta":{}},"geometry":{"type":"Point","coordinates":[13.1873485,55.7064989]}},{"type":"Feature","id":"node/2995728129","properties":{"type":"node","id":2995728129,"tags":{"amenity":"bicycle_rental","name":"Mårtenstorget","network":"Lundahoj","ref":"5","website":"http://lundahoj.se/"},"relations":[],"meta":{}},"geometry":{"type":"Point","coordinates":[13.1961365,55.701924]}},{"type":"Feature","id":"node/2995728130","properties":{"type":"node","id":2995728130,"tags":{"amenity":"bicycle_rental","fixme":"position","name":"Professorsgatan","network":"Lundahoj","ref":"16","website":"http://lundahoj.se/"},"relations":[],"meta":{}},"geometry":{"type":"Point","coordinates":[13.2061044,55.7095564]}},{"type":"Feature","id":"node/2995728131","properties":{"type":"node","id":2995728131,"tags":{"amenity":"bicycle_rental","name":"Sparta","network":"Lundahoj","ref":"15","website":"http://lundahoj.se/"},"relations":[],"meta":{}},"geometry":{"type":"Point","coordinates":[13.2146969,55.7092956]}},{"type":"Feature","id":"node/2995728132","properties":{"type":"node","id":2995728132,"tags":{"amenity":"bicycle_rental","name":"Stadsparken Norr","network":"Lundahoj","ref":"3","website":"http://lundahoj.se/"},"relations":[],"meta":{}},"geometry":{"type":"Point","coordinates":[13.1855698,55.7013925]}},{"type":"Feature","id":"node/2995732433","properties":{"type":"node","id":2995732433,"tags":{"amenity":"bicycle_rental","name":"Stortorget","network":"Lundahoj","ref":"4","website":"http://lundahoj.se/"},"relations":[],"meta":{}},"geometry":{"type":"Point","coordinates":[13.1933879,55.7029921]}},{"type":"Feature","id":"node/2995732434","properties":{"type":"node","id":2995732434,"tags":{"amenity":"bicycle_rental","name":"Universitetsbiblioteket","network":"Lundahoj","ref":"8","website":"http://lundahoj.se/"},"relations":[],"meta":{}},"geometry":{"type":"Point","coordinates":[13.1963993,55.7082554]}},{"type":"Feature","id":"node/2995732435","properties":{"type":"node","id":2995732435,"tags":{"amenity":"bicycle_rental","fixme":"position","name":"Universitetssjukhuset","network":"Lundahoj","ref":"9","website":"http://lundahoj.se/"},"relations":[],"meta":{}},"geometry":{"type":"Point","coordinates":[13.1968896,55.7128675]}},{"type":"Feature","id":"node/3396224299","properties":{"type":"node","id":3396224299,"tags":{"amenity":"bicycle_rental","capacity":"24","name":"Läraregatan/Molinsgatan","network":"Styr & Ställ Göteborg","operator":"JCDecaux","ref":"53","source":"http://data.goteborg.se/StyrOchStall/v0.1/GetBikeStation/53/<user_key>"},"relations":[],"meta":{}},"geometry":{"type":"Point","coordinates":[11.9745157,57.6940964]}},{"type":"Feature","id":"node/3409773171","properties":{"type":"node","id":3409773171,"tags":{"amenity":"bicycle_rental","capacity":"20","name":"Carlandersplatsen","network":"Styr & Ställ Göteborg","operator":"JCDecaux","ref":"48","source":"http://data.goteborg.se/StyrOchStall/v0.1/GetBikeStation/48/<user_key>"},"relations":[],"meta":{}},"geometry":{"type":"Point","coordinates":[11.9867264,57.6929919]}},{"type":"Feature","id":"node/3409773172","properties":{"type":"node","id":3409773172,"tags":{"amenity":"bicycle_rental","capacity":"25","name":"Gibraltargatan/Eklandagatan","network":"Styr & Ställ Göteborg","operator":"JCDecaux","ref":"52","source":"http://data.goteborg.se/StyrOchStall/v0.1/GetBikeStation/52/<user_key>"},"relations":[],"meta":{}},"geometry":{"type":"Point","coordinates":[11.9840586,57.6853025]}},{"type":"Feature","id":"node/3409773173","properties":{"type":"node","id":3409773173,"tags":{"amenity":"bicycle_rental","capacity":"20","name":"Gibraltargatan/Eklandagatan","network":"Styr & Ställ Göteborg","operator":"JCDecaux","ref":"55","source":"http://data.goteborg.se/StyrOchStall/v0.1/GetBikeStation/55/<user_key>"},"relations":[],"meta":{}},"geometry":{"type":"Point","coordinates":[11.9799958,57.6897272]}},{"type":"Feature","id":"node/3444422429","properties":{"type":"node","id":3444422429,"tags":{"amenity":"bicycle_rental","capacity":"30","name":"Rosenlund/Färjeläget","network":"Styr & Ställ Göteborg","operator":"JCDecaux","source":"http://data.goteborg.se/StyrOchStall/v0.1/GetBikeStation/62/%3Cuser_key%3E"},"relations":[],"meta":{}},"geometry":{"type":"Point","coordinates":[11.9523838,57.7023165]}},{"type":"Feature","id":"node/3444429401","properties":{"type":"node","id":3444429401,"tags":{"amenity":"bicycle_rental","capacity":"20","name":"Hagabion","network":"Styr & ställ Göteborg","operator":"JCDecaux"},"relations":[],"meta":{}},"geometry":{"type":"Point","coordinates":[11.9509962,57.6968015]}},{"type":"Feature","id":"node/3454778931","properties":{"type":"node","id":3454778931,"tags":{"amenity":"bicycle_rental","capacity":"20","name":"Eklanda/Utlandagatan","network":"Styr & Ställ Göteborg","operator":"JCDecaux","ref":"54","source":"http://data.goteborg.se/StyrOchStall/v0.1/GetBikeStation/54/<user_key>"},"relations":[],"meta":{}},"geometry":{"type":"Point","coordinates":[11.9885483,57.6902851]}},{"type":"Feature","id":"node/3459181379","properties":{"type":"node","id":3459181379,"tags":{"amenity":"bicycle_rental","capacity":"12","name":"Sveavägen 66","network":"Stockholm City Bikes","operator":"City Bikes","payment:cash":"no","payment:debit_cards":"no","payment:electronic_purses":"City Bikes Stockholm","ref":"60","self_service":"yes","source":"survey","website":"http://www.citybikes.se"},"relations":[],"meta":{}},"geometry":{"type":"Point","coordinates":[18.0591131,59.3400415]}},{"type":"Feature","id":"node/3467357480","properties":{"type":"node","id":3467357480,"tags":{"amenity":"bicycle_rental","capacity":"21","name":"Kräftriket","network":"Stockholm City Bikes","operator":"City Bikes","payment:cash":"no","payment:debit_cards":"no","payment:electronic_purses":"City Bikes Stockholm","self_service":"yes","source":"survey","website":"http://www.citybikes.se"},"relations":[],"meta":{}},"geometry":{"type":"Point","coordinates":[18.055048,59.356337]}},{"type":"Feature","id":"node/3467969943","properties":{"type":"node","id":3467969943,"tags":{"amenity":"bicycle_rental","capacity":"18","network":"Stockholm City Bikes","operator":"City Bikes","payment:cash":"no","payment:debit_cards":"no","payment:electronic_purses":"City Bikes Stockholm","ref":"108","self_service":"yes","source":"survey","website":"http://www.citybikes.se"},"relations":[],"meta":{}},"geometry":{"type":"Point","coordinates":[18.066116,59.3408791]}},{"type":"Feature","id":"node/3580861604","properties":{"type":"node","id":3580861604,"tags":{"amenity":"bicycle_rental","capacity":"30","network":"Stockholm City Bikes","operator":"City Bikes","payment:cash":"no","payment:debit_cards":"no","payment:electronic_purses":"City Bikes Stockholm","ref":"100","self_service":"yes","website":"http://www.citybikes.se"},"relations":[],"meta":{}},"geometry":{"type":"Point","coordinates":[18.0251512,59.3095392]}},{"type":"Feature","id":"node/3580868925","properties":{"type":"node","id":3580868925,"tags":{"amenity":"bicycle_rental","capacity":"24","network":"Stockholm City Bikes","operator":"City Bikes","payment:cash":"no","payment:debit_cards":"no","payment:electronic_purses":"City Bikes Stockholm","ref":"76","self_service":"yes","website":"http://www.citybikes.se"},"relations":[],"meta":{}},"geometry":{"type":"Point","coordinates":[18.0250041,59.3107179]}},{"type":"Feature","id":"node/3612237233","properties":{"type":"node","id":3612237233,"tags":{"amenity":"bicycle_rental","capacity":"25","name":"Förstalång/Värmlandsgatan","network":"Styr & Ställ Göteborg","operator":"JCDecaux","source":"http://data.goteborg.se/StyrOchStall/v0.1/GetBikeStation/59/%3Cuser_key%3E"},"relations":[],"meta":{}},"geometry":{"type":"Point","coordinates":[11.9460709,57.7000124]}},{"type":"Feature","id":"node/3612237234","properties":{"type":"node","id":3612237234,"tags":{"amenity":"bicycle_rental","capacity":"40","name":"Masthuggstorget","network":"Styr & Ställ Göteborg","operator":"JCDecaux","source":"http://data.goteborg.se/StyrOchStall/v0.1/GetBikeStation/61/%3Cuser_key%3E"},"relations":[],"meta":{}},"geometry":{"type":"Point","coordinates":[11.9417745,57.6993894]}},{"type":"Feature","id":"node/3778757591","properties":{"type":"node","id":3778757591,"tags":{"addr:city":"Malmö","addr:country":"SE","addr:housenumber":"4","addr:street":"Carlsgatan","amenity":"bicycle_rental","name":"Travel Shop","website":"http://www.travelshop.se"},"relations":[],"meta":{}},"geometry":{"type":"Point","coordinates":[12.9988748,55.610621]}},{"type":"Feature","id":"node/3804212604","properties":{"type":"node","id":3804212604,"tags":{"amenity":"bicycle_rental","name":"Östra Hamngatan","network":"Styr & Ställ Göteborg","operator":"JCDecaux","ref":"67","source":"http://data.goteborg.se/StyrOchStall/v0.1/GetBikeStation/67/<user_key>"},"relations":[],"meta":{}},"geometry":{"type":"Point","coordinates":[11.9690952,57.7044204]}},{"type":"Feature","id":"node/3871806969","properties":{"type":"node","id":3871806969,"tags":{"amenity":"bicycle_rental","capacity":"25","name":"Kaponjärgatan","network":"Styr & Ställ Göteborg","operator":"JCDecaux","ref":"49","source":"http://data.goteborg.se/StyrOchStall/v0.1/GetBikeStation/49/%3Cuser_key%3E"},"relations":[],"meta":{}},"geometry":{"type":"Point","coordinates":[11.9564239,57.6988379]}},{"type":"Feature","id":"node/3871806970","properties":{"type":"node","id":3871806970,"tags":{"amenity":"bicycle_rental","capacity":"20","name":"Olof Palmes Plats","network":"Styr & Ställ Göteborg","operator":"JCDecaux","ref":"19","source":"http://data.goteborg.se/StyrOchStall/v0.1/GetBikeStation/19/%3Cuser_key%3E"},"relations":[],"meta":{}},"geometry":{"type":"Point","coordinates":[11.9536364,57.7005571]}},{"type":"Feature","id":"node/3892421951","properties":{"type":"node","id":3892421951,"tags":{"amenity":"bicycle_rental","capacity":"50","name":"Chalmersplatsen","network":"Styr & Ställ Göteborg","operator":"JCDecaux","ref":"56","source":"http://data.goteborg.se/StyrOchStall/v0.1/GetBikeStation/56/<user_key>"},"relations":[],"meta":{}},"geometry":{"type":"Point","coordinates":[11.9733697,57.6898554]}},{"type":"Feature","id":"node/3950521663","properties":{"type":"node","id":3950521663,"tags":{"amenity":"bicycle_rental","name":"Bagarmossens Cykelkök","note":"They are going to start renting out bikes in  March. Not sure though...","url":"http://bagarmossenscykelkok.se/"},"relations":[],"meta":{}},"geometry":{"type":"Point","coordinates":[18.1357958,59.2766134]}},{"type":"Feature","id":"node/4228720601","properties":{"type":"node","id":4228720601,"tags":{"amenity":"bicycle_rental"},"relations":[],"meta":{}},"geometry":{"type":"Point","coordinates":[16.7349725,57.8308]}},{"type":"Feature","id":"node/4266203431","properties":{"type":"node","id":4266203431,"tags":{"addr:city":"Malmö","addr:housenumber":"29","addr:street":"Celsiusgatan","amenity":"bicycle_rental","capacity":"24","email":"info@malmobybike.se","name":"Celsiusgatan 29","network":"Malmö by bike","operator":"Clear Channel","phone":"+46 770 78 24 24","ref":"049","website":"https://www.malmobybike.se/"},"relations":[],"meta":{}},"geometry":{"type":"Point","coordinates":[13.0275777,55.6007174]}},{"type":"Feature","id":"node/4266240474","properties":{"type":"node","id":4266240474,"tags":{"addr:city":"Malmö","addr:housenumber":"1","addr:street":"Sallerupsvägen","amenity":"bicycle_rental","capacity":"0","email":"info@malmobybike.se","name":"Sallerupsvägen 1","network":"Malmö by bike","operational_status":"closed","operator":"Clear Channel","phone":"+46 770 78 24 24","ref":"050","website":"https://www.malmobybike.se/"},"relations":[],"meta":{}},"geometry":{"type":"Point","coordinates":[13.024736,55.6052165]}},{"type":"Feature","id":"node/4268348358","properties":{"type":"node","id":4268348358,"tags":{"amenity":"bicycle_rental","capacity":"27","email":"info@malmobybike.se","name":"Station Triangeln Norra","network":"Malmö by bike","operator":"Clear Channel","payment:credit_cards":"yes","phone":"+46 770 78 24 24","ref":"018","website":"https://www.malmobybike.se/"},"relations":[],"meta":{}},"geometry":{"type":"Point","coordinates":[13.000394,55.5937869]}},{"type":"Feature","id":"node/4301199087","properties":{"type":"node","id":4301199087,"tags":{"amenity":"bicycle_rental"},"relations":[],"meta":{}},"geometry":{"type":"Point","coordinates":[12.6073039,59.6237881]}},{"type":"Feature","id":"node/4380693391","properties":{"type":"node","id":4380693391,"tags":{"amenity":"bicycle_rental","capacity":"8","network":"Stockholm City Bikes","operator":"City Bikes","payment:cash":"no","payment:debit_cards":"no","payment:electronic_purses":"City Bikes Stockholm","ref":"3","self_service":"yes","website":"http://www.citybikes.se"},"relations":[],"meta":{}},"geometry":{"type":"Point","coordinates":[18.0839636,59.3161964]}},{"type":"Feature","id":"node/4401257297","properties":{"type":"node","id":4401257297,"tags":{"amenity":"bicycle_rental","name":"Vandrahem Hvilan"},"relations":[],"meta":{}},"geometry":{"type":"Point","coordinates":[18.6903816,59.75447]}},{"type":"Feature","id":"node/4420281689","properties":{"type":"node","id":4420281689,"tags":{"amenity":"bicycle_rental"},"relations":[],"meta":{}},"geometry":{"type":"Point","coordinates":[16.8128371,60.6728918]}},{"type":"Feature","id":"node/4503830992","properties":{"type":"node","id":4503830992,"tags":{"addr:city":"Ransäter","addr:housenumber":"10","addr:postcode":"68493","addr:street":"Prästvägen","amenity":"bicycle_rental","name":"Prästmyren Vandrahem STF","website":"http://www.visitmunkfors.se/sv/gora/cykeluthyrning-vid-prastmyren-vandrahem-stf-34554"},"relations":[],"meta":{}},"geometry":{"type":"Point","coordinates":[13.4318496,59.7884354]}},{"type":"Feature","id":"node/4582746958","properties":{"type":"node","id":4582746958,"tags":{"amenity":"bicycle_rental","name":"Malmö By Bike"},"relations":[],"meta":{}},"geometry":{"type":"Point","coordinates":[12.9848679,55.614451]}},{"type":"Feature","id":"node/4582777069","properties":{"type":"node","id":4582777069,"tags":{"amenity":"bicycle_rental","name":"Malmö By Bike"},"relations":[],"meta":{}},"geometry":{"type":"Point","coordinates":[12.9906298,55.6145033]}},{"type":"Feature","id":"node/4769445622","properties":{"type":"node","id":4769445622,"tags":{"amenity":"bicycle_rental","name":"Lindhagensplan","network":"Stockholm City Bikes","operator":"City Bikes","payment:cash":"no","payment:debit_cards":"no","payment:electronic_purses":"City Bikes Stockholm","ref":"121","self_service":"yes","website":"http://www.citybikes.se"},"relations":[],"meta":{}},"geometry":{"type":"Point","coordinates":[18.0199369,59.3321196]}},{"type":"Feature","id":"node/4789034141","properties":{"type":"node","id":4789034141,"tags":{"amenity":"bicycle_rental","capacity":"40","name":"Stenpiren","network":"Styr & Ställ Göteborg","operator":"JCDecaux","ref":"69","source":"http://data.goteborg.se/StyrOchStall/v0.1/GetBikeStation/69/<user_key>"},"relations":[],"meta":{}},"geometry":{"type":"Point","coordinates":[11.956877,57.7056727]}},{"type":"Feature","id":"node/4792997707","properties":{"type":"node","id":4792997707,"tags":{"amenity":"bicycle_rental"},"relations":[],"meta":{}},"geometry":{"type":"Point","coordinates":[16.4813456,56.6502124]}}]}